address	brand	city	lat	lon	name	phone	province	url
黑龙江省大庆市高新技术产业开发区安萨路32号	GAC Toyota	None	46.570219	125.163992	广汽丰田大庆世腾高新区店	0459-60391110459-6039222	None	https://www.gac-toyota.com.cn/province/heilongjiang/daqing/dealer/dqstgxq
哈尔滨市道里区城乡路441号	GAC Toyota	None	45.716589	126.564019	广汽丰田哈尔滨广龙机场路店	0451-88933888	None	https://www.gac-toyota.com.cn/province/heilongjiang/haerbin/dealer/hebgljcl
哈尔滨市道外区先锋路24号	GAC Toyota	None	45.778835	126.743921	广汽丰田哈尔滨龙晟先锋店	0451-82466666	None	https://www.gac-toyota.com.cn/province/heilongjiang/haerbin/dealer/heblsxf
黑龙江省哈尔滨市香坊区学府路403号	GAC Toyota	None	45.661131	126.63079	广汽丰田哈尔滨文华学府路店	0451-88889958	None	https://www.gac-toyota.com.cn/province/heilongjiang/haerbin/dealer/hebwhxfl
哈尔滨经开区哈南工业新城松花路与滨河大道交汇处	GAC Toyota	None	45.602014	126.62833	广汽丰田哈尔滨中升松花路店	0451-51050666	None	https://www.gac-toyota.com.cn/province/heilongjiang/haerbin/dealer/zsshl
黑龙江省佳木斯市郊区友谊路1199号（长青乡四合村）	GAC Toyota	None	46.93299614	130.09765832	广汽丰田佳木斯旭通友谊路店	0454-8880888	None	https://www.gac-toyota.com.cn/province/heilongjiang/jiamusi/dealer/jmsxtyyl
黑龙江省牡丹江市江南开发区乌苏里路41号	GAC Toyota	None	44.56152873	129.63511107	广汽丰田牡丹江绿地兴隆街店	0453-8129444	None	https://www.gac-toyota.com.cn/province/heilongjiang/mudanjiang/dealer/mdjldxlj
黑龙江省齐齐哈尔市龙沙区永安南大街10号	GAC Toyota	None	47.325367	123.941111	广汽丰田齐齐哈尔龙晟齐富路店	0452-8888300	None	https://www.gac-toyota.com.cn/province/heilongjiang/qiqihaer/dealer/qqhelsqfl
绥化市北林区康庄路温馨家园北侧西行200米	GAC Toyota	None	46.61907	126.977864	广汽丰田绥化盛达康庄路店	0455-3585555	None	https://www.gac-toyota.com.cn/province/heilongjiang/suihua/dealer/shsdkzl
黑龙江省双鸭山市集贤县福双路256-1号	GAC Toyota	None	46.707347	131.147915	广汽丰田双鸭山龙晟福双路店	0469-6151111	None	https://www.gac-toyota.com.cn/province/heilongjiang/shuangyashan/dealer/syslsfslf
黑龙江省七台河市桃山区大明街352号	GAC Toyota	None	45.777453	130.977982	广汽丰田七台河龙晟大明街店	0464-8618388	None	https://www.gac-toyota.com.cn/province/heilongjiang/qitaihe/dealer/qthlsdmj
吉林市船营区和平路3466号	GAC Toyota	None	43.87687296	126.52385821	广汽丰田吉林成邦沙河子店	0432-66051111	None	https://www.gac-toyota.com.cn/province/jilin/jilin/dealer/jlcbshz
吉林省松原市经济技术开发区西郭尔罗斯大路2345号	GAC Toyota	None	45.143186	124.776485	广汽丰田松原吉刚经开区店	0438-3111333	None	https://www.gac-toyota.com.cn/province/jilin/songyuan/dealer/syjgjkq
吉林省延吉市经济开发区长白山东路3388号	GAC Toyota	None	42.903743	129.576805	广汽丰田延边大荣开发区店	0433-8396333	None	https://www.gac-toyota.com.cn/province/jilin/yanji/dealer/ybdrkfq
长春市经济技术开发区自由大路7133号	GAC Toyota	None	43.755233	125.080517	广汽丰田长春中升经开区店	0431-84992222	None	https://www.gac-toyota.com.cn/province/jilin/changchun/dealer/cczsjkq
长春市高新区硅谷大街2999号	GAC Toyota	None	43.82820786	125.2656501	广汽丰田长春宝辉高新区店	0431-85556868	None	https://www.gac-toyota.com.cn/province/jilin/changchun/dealer/ccbhgxq
长春市高新区卓越大街与宜居路交汇处	GAC Toyota	None	43.782512	125.221529	广汽丰田长春中升卓越店	0431-89543777	None	https://www.gac-toyota.com.cn/province/jilin/changchun/dealer/zszy
吉林省长春市绿园区景阳大路3756号	GAC Toyota	None	43.88917	125.249656	广汽丰田长春晟孚绿园区店	0431-89127000	None	https://www.gac-toyota.com.cn/province/jilin/changchun/dealer/ccsflyq
吉林省四平市铁东区经济开发区大路5999号	GAC Toyota	None	43.18974924	124.39612519	广汽丰田四平汇田经开店	0434-7777555	None	https://www.gac-toyota.com.cn/province/jilin/siping/dealer/sphtjk
吉林省通化市环通乡长流村新胜北路4588号	GAC Toyota	None	41.793552	125.899753	广汽丰田通化隆孚东昌店	0435-3932777	None	https://www.gac-toyota.com.cn/province/jilin/tonghua/dealer/thlfdc
吉林省白城市经济开发区洮白公路1010号	GAC Toyota	None	45.57906061	122.83636112	广汽丰田白城瑞成经开店	0436-5887222	None	https://www.gac-toyota.com.cn/province/jilin/baicheng/dealer/bcrcjk
鞍山市千山区西环路92号	GAC Toyota	None	41.0702683	122.96075033	广汽丰田鞍山和润德西环店	0412-8499888	None	https://www.gac-toyota.com.cn/province/liaoning/anshan/dealer/ashrdxh
鞍山海城市南外环箭楼居委会281号（正泰电器楼下）	GAC Toyota	None	40.70767586	122.91773149	广汽丰田海城和润德南环店	0412-8050111	None	https://www.gac-toyota.com.cn/province/liaoning/anshan/dealer/ashrdnh
辽宁省本溪市明山区二坊桥南100米	GAC Toyota	None	41.323034	123.876723	广汽丰田本溪中升卧龙店	024-44632888	None	https://www.gac-toyota.com.cn/province/liaoning/benxi/dealer/bxmhwl
辽宁省朝阳市开发区龙泉大街3段8号	GAC Toyota	None	41.591269	120.394883	广汽丰田朝阳中升正茂龙泉店	0421-7235555	None	https://www.gac-toyota.com.cn/province/liaoning/chaoyang/dealer/zszmlq
大连市甘井子区华北路北市商贸街158号	GAC Toyota	None	39.024741	121.632587	广汽丰田大连天巳华北路店	0411-86446988	None	https://www.gac-toyota.com.cn/province/liaoning/dalian/dealer/dltshbl
大连市甘井子区虹港路560号	GAC Toyota	None	38.966906	121.530198	广汽丰田大连中升虹港路店	0411-39796666	None	https://www.gac-toyota.com.cn/province/liaoning/dalian/dealer/dlzshgl
大连市保税区中港北二路18号	GAC Toyota	None	39.04791244	121.84770313	广汽丰田大连庆通中港路店	0411—39219222	None	https://www.gac-toyota.com.cn/province/liaoning/dalian/dealer/dlqtzgl
阜新市经济开发区3路9号	GAC Toyota	None	42.009082	121.621991	广汽丰田阜新和旺开发区店	0418-3890666	None	https://www.gac-toyota.com.cn/province/liaoning/fuxin/dealer/fxhwkfq
辽宁省葫芦岛市龙港区玉皇商城B区	GAC Toyota	None	40.737949	120.884819	广汽丰田葫芦岛川达龙程路店	0429-2667000	None	https://www.gac-toyota.com.cn/province/liaoning/hulu/dealer/hldcdlcl
辽宁省锦州市松山新区锦娘路171号	GAC Toyota	None	41.07913667	121.16900301	广汽丰田锦州卓远松山店	0416-2668888	None	https://www.gac-toyota.com.cn/province/liaoning/jinzhou/dealer/jzzyss
辽阳市太子河区祁家镇繁荣路中段石桥子村	GAC Toyota	None	41.300789	123.135416	广汽丰田辽阳瑞达繁荣路店	0419-3993333	None	https://www.gac-toyota.com.cn/province/liaoning/liaoyang/dealer/lyrdfrl
盘锦市盘山县新县城规划区内(305国道与西外环交汇处)	GAC Toyota	None	41.263952	121.996859	广汽丰田盘锦星海太平店	0427-5681888	None	https://www.gac-toyota.com.cn/province/liaoning/panjin/dealer/pjxhtp
沈阳市大东区北海街10号	GAC Toyota	None	41.83722605	123.47432837	广汽丰田沈阳隆孚大东店	024-88118888	None	https://www.gac-toyota.com.cn/province/liaoning/shen/dealer/sylfdd
沈阳市铁西区北二西路10号	GAC Toyota	None	41.823149	123.356718	广汽丰田沈阳广通行铁西店	024-25518888	None	https://www.gac-toyota.com.cn/province/liaoning/shen/dealer/sygtxtx
沈阳市于洪区沈大路83号	GAC Toyota	None	41.80057696	123.29106655	广汽丰田沈阳华夏于洪店	024-31076666	None	https://www.gac-toyota.com.cn/province/liaoning/shen/dealer/syhxyh
沈阳经济技术开发区沈辽西路183号	GAC Toyota	None	41.731901	123.230807	广汽丰田沈阳中升沈辽路店	024-31064666	None	https://www.gac-toyota.com.cn/province/liaoning/shen/dealer/syxhsll
辽宁省沈阳市和平区下河湾303-2号	GAC Toyota	None	41.699086	123.381754	广汽丰田沈阳中升捷丰和平店	024-31220000	None	https://www.gac-toyota.com.cn/province/liaoning/shen/dealer/zsjfhpd
辽宁省沈阳市沈河区东陵路15号	GAC Toyota	None	41.798305	123.453552	广汽丰田沈阳路安东陵路店	024-88203888	None	https://www.gac-toyota.com.cn/province/liaoning/shen/dealer/adll
铁岭市经济开发区机动车交易市场园区长江东路10号	GAC Toyota	None	42.191466	123.78356	广汽丰田铁岭中升凡河店	024-74963333	None	https://www.gac-toyota.com.cn/province/liaoning/tieling/dealer/tlatfh
辽宁省营口市新营路南9号（车管所北200米）	GAC Toyota	None	40.668379	122.292401	广汽丰田营口中升庄林路店	0417-3315151	None	https://www.gac-toyota.com.cn/province/liaoning/yingkou/dealer/ykzszll
辽宁省东港市前阳经济开发区石佛村二组	GAC Toyota	None	39.918998	124.172936	广汽丰田丹东中升东港店	0415-3338555	None	https://www.gac-toyota.com.cn/province/liaoning/dandong/dealer/ddqtqy
辽宁省抚顺市新抚区浑河南路天湖大桥南	GAC Toyota	None	41.88329064	123.9880424	广汽丰田抚顺金韵达新抚店	024-57175555	None	https://www.gac-toyota.com.cn/province/liaoning/fushun/dealer/fsjydxf
北京市海淀区杏石口路78号	GAC Toyota	None	39.959645	116.234292	广汽丰田北京金时四季青店	010-62598989	None	https://www.gac-toyota.com.cn/province/beijing/beijing/dealer/bjjssjq
北京市朝阳区望京新兴产业园区利泽东园309号	GAC Toyota	None	40.019396	116.487012	广汽丰田北京森华望京店	010-64392266	None	https://www.gac-toyota.com.cn/province/beijing/beijing/dealer/bjshwj
北京市朝阳区南四环东路45号	GAC Toyota	None	39.841267	116.471121	广汽丰田北京嘉程小红门店	010-57981668	None	https://www.gac-toyota.com.cn/province/beijing/beijing/dealer/bjjcxhm/
北京市石景山区古城大街国际汽车贸易园区F区3号	GAC Toyota	None	39.922837	116.18495	广汽丰田北京大昌联丰古城店	010-68886667	None	https://www.gac-toyota.com.cn/province/beijing/beijing/dealer/bjdclfgc/
北京市朝阳区朝阳北路甲45号	GAC Toyota	None	39.931199	116.563161	广汽丰田北京奥吉通丰瑞店	010-65755588	None	https://www.gac-toyota.com.cn/province/beijing/beijing/dealer/bjajtfr
北京市朝阳区高碑店乡半壁店村388号	GAC Toyota	None	39.89852	116.538602	广汽丰田北京路丰广渠路店	010-56651616	None	https://www.gac-toyota.com.cn/province/beijing/beijing/dealer/bjlfgql
北京市朝阳区德外花虎沟20-1号	GAC Toyota	None	40.022835	116.36981	广汽丰田北京澳林奥运村店	010-62928866	None	https://www.gac-toyota.com.cn/province/beijing/beijing/dealer/bjalayc
北京市海淀区西北旺百旺绿谷汽车园	GAC Toyota	None	40.058348	116.258312	广汽丰田北京传是百旺店	010-82403223	None	https://www.gac-toyota.com.cn/province/beijing/beijing/dealer/bjcsbw
北京市房山区阎村镇前沿村村委会南105米	GAC Toyota	None	39.73111408	116.10510053	广汽丰田北京长京行房山店	010-83518889	None	https://www.gac-toyota.com.cn/province/beijing/beijing/dealer/bjcjxcq
北京市丰台区右安门外南三环西路43号	GAC Toyota	None	39.858043	116.359806	广汽丰田北京欣源玉泉营店	010-63519903	None	https://www.gac-toyota.com.cn/province/beijing/beijing/dealer/xyyqyd
北京市丰台区青塔西路69号	GAC Toyota	None	39.878136	116.269598	广汽丰田北京嘉金青塔店	010-83696868	None	https://www.gac-toyota.com.cn/province/beijing/beijing/dealer/bjjjqt
北京市朝阳区平房乡石各庄村东甲1号	GAC Toyota	None	39.944739	116.578756	广汽丰田北京华宇姚家园店	13911966156	None	https://www.gac-toyota.com.cn/province/beijing/beijing/dealer/bjshyyjyd
北京市东城区左安门关厢东里22号	GAC Toyota	None	39.876613	116.450961	广汽丰田北京中升浩洋方庄店	010-87675777	None	https://www.gac-toyota.com.cn/province/beijing/beijing/dealer/zshyfz
北京市昌平区回龙观欧德宝汽车交易市场A区23-24号	GAC Toyota	None	40.08094	116.312548	广汽丰田北京国机回龙观店	010-80750899	None	https://www.gac-toyota.com.cn/province/beijing/beijing/dealer/bjgjhlg
北京市通州区梨园九棵树西路11号	GAC Toyota	None	39.896084	116.660987	广汽丰田北京博瑞东贸店	010-81571116	None	https://www.gac-toyota.com.cn/province/beijing/beijing/dealer/bjbrdm/
北京市昌平区北七家北辰亚运村汽车交易市场B区A03-5	GAC Toyota	None	40.10200928	116.42137165	广汽丰田北京安通亚市(在建店)		None	https://www.gac-toyota.com.cn/province/beijing/beijing/dealer/atys
河北省保定市莲池区东二环路539号	GAC Toyota	None	38.83656714	115.54429794	广汽丰田保定保汇东二环店	0312-2126688	None	https://www.gac-toyota.com.cn/province/hebei/baoding/dealer/bhdeh
保定市朝阳北大街1299号	GAC Toyota	None	38.913612	115.475287	广汽丰田保定岁丰朝阳店	0312-3321234	None	https://www.gac-toyota.com.cn/province/hebei/baoding/dealer/bdsfcy
河北省保定市莲池区南二环929号院内	GAC Toyota	None	38.82710945	115.45065902	广汽丰田保定长振南二环店	0312-5915111	None	https://www.gac-toyota.com.cn/province/hebei/baoding/dealer/cznehd
河北省沧州市沧县纸房头乡古迹铺村银川路北侧28号	GAC Toyota	None	38.27745271	116.7862008	广汽丰田沧州长沧迎宾店	0317-5632233	None	https://www.gac-toyota.com.cn/province/hebei/cangzhou/dealer/ccybd
河北省沧州市经济开发区石港路29号	GAC Toyota	None	38.29653	116.939143	广汽丰田沧州信运行经开店	0317-3178888	None	https://www.gac-toyota.com.cn/province/hebei/cangzhou/dealer/czxyxjk
河北省沧州市运河区渤海西路与浮阳北大道交叉口西200米路南	GAC Toyota	None	38.35458515	116.85274835	广汽丰田沧州蓝池茂龙运河店	0317-2177222	None	https://www.gac-toyota.com.cn/province/hebei/cangzhou/dealer/lcmlyhd
河北省承德市开发区大石庙镇太平庄村庞大汽车城	GAC Toyota	None	40.892504	117.992419	广汽丰田承德庞大双桥店	0314--2162099	None	https://www.gac-toyota.com.cn/province/hebei/chengde/dealer/cdpdsq
承德市双滦区狮子园路汽车小镇5号广汽丰田承德信创双滦店	GAC Toyota	None	41.021779	117.829262	广汽丰田承德信创双滦店(在建店)		None	https://www.gac-toyota.com.cn/province/hebei/chengde/dealer/cdxcsld
邯郸市丛台区中华北大街与果园路交叉口西北角	GAC Toyota	None	36.652436	114.502969	广汽丰田邯郸隆和中华路店	0310-5515666	None	https://www.gac-toyota.com.cn/province/hebei/handan/dealer/hdlhzhl
河北省邯郸市复兴区联纺西路与西环路交叉口东南角	GAC Toyota	None	36.63564	114.443862	广汽丰田邯郸骏达复兴店	0310-7178888	None	https://www.gac-toyota.com.cn/province/hebei/handan/dealer/hdjdfx
河北省衡水市桃城区北外环596号	GAC Toyota	None	37.775571	115.711202	广汽丰田衡水金时北环路店	0318-2129096	None	https://www.gac-toyota.com.cn/province/hebei/hengshui/dealer/hsjsbhl
河北省秦皇岛市开发区黄河道与横断山路交叉口处（新管委西行2公里路北）	GAC Toyota	None	39.926676	119.504393	广汽丰田秦皇岛金时开发区店	0335-5910005	None	https://www.gac-toyota.com.cn/province/hebei/qinhuangdao/dealer/qhdjskfq
秦皇岛市昌黎县东外环路西侧（立交桥南）	GAC Toyota	None	39.73493166	119.21328335	广汽丰田秦皇岛金时开发区店昌黎分店	0335-2059777	None	https://www.gac-toyota.com.cn/province/hebei/qinhuangdao/dealer/qhdjskfqdclf
秦皇岛市海港区京沈高速北出口瑞通汽车园内	GAC Toyota	None	39.977133	119.556007	广汽丰田秦皇岛金时海阳路店(在建店)		None	https://www.gac-toyota.com.cn/province/hebei/qinhuangdao/dealer/qhdjhld
石家庄市裕华区建华大街与南二环交叉口南行一公里	GAC Toyota	None	37.988409	114.556832	广汽丰田石家庄锐源金利店	0311-86139999	None	https://www.gac-toyota.com.cn/province/hebei/shijiazhuang/dealer/sjzryjl
河北省石家庄市北二环东路86号河北国际汽车贸易园区	GAC Toyota	None	38.075564	114.558391	广汽丰田石家庄中升捷丰丰收路店	0311-85656111	None	https://www.gac-toyota.com.cn/province/hebei/shijiazhuang/dealer/sjzgsfsl
河北省石家庄市石获北路与植物园街交口西行500米路南	GAC Toyota	None	38.076475	114.410529	广汽丰田石家庄中升丰悦新华店	0311-68026999	None	https://www.gac-toyota.com.cn/province/hebei/shijiazhuang/dealer/sjzhfhxh
石家庄市长安区和平东路与石兆路交口东行100米	GAC Toyota	None	38.060671	114.579644	广汽丰田石家庄信创和平东路店	0311-89911111	None	https://www.gac-toyota.com.cn/province/hebei/shijiazhuang/dealer/xchpdl
唐山市路南区南环路1号(陶瓷城西门口西侧88米)	GAC Toyota	None	39.599804	118.20166	广汽丰田唐山中润路南店	0315-2960888	None	https://www.gac-toyota.com.cn/province/hebei/tangshan/dealer/tszrln
河北省唐山市机场路立交桥北侧荣川汽车园区	GAC Toyota	None	39.676793	118.112337	广汽丰田唐山荣华荣川店	0315-3113958	None	https://www.gac-toyota.com.cn/province/hebei/tangshan/dealer/rhrc
河北省唐山市高新区建设路北立交桥北行500米路西	GAC Toyota	None	39.710694	118.17738	广汽丰田唐山信创高新店	0315-3851333	None	https://www.gac-toyota.com.cn/province/hebei/tangshan/dealer/tsxcgx
河北省唐山市迁安市杨店子镇大郭庄村	GAC Toyota	None	40.006178	118.590138	广汽丰田迁安华铃经九路店	0315-5327755	None	https://www.gac-toyota.com.cn/province/hebei/tangshan/dealer/qahljjl
唐山市开平区新华东道南侧、中心环西侧	GAC Toyota	None	39.63583462	118.28301453	广汽丰田唐山廊大开平店	0315-2983355	None	https://www.gac-toyota.com.cn/province/hebei/tangshan/dealer/ldkpd
邢台市桥东区龙岗大街与永安路交叉口西北角	GAC Toyota	None	37.127268	114.557317	广汽丰田邢台广发龙岗东大街店	0319-5258111	None	https://www.gac-toyota.com.cn/province/hebei/xingtai/dealer/gflgddj
河北省邢台市开发区中兴东大街1695号	GAC Toyota	None	37.066666	114.556771	广汽丰田邢台润丰中兴路店	0319-3280888	None	https://www.gac-toyota.com.cn/province/hebei/xingtai/dealer/xtrfzxl
河北省张家口市宣化县沙岭子太师湾村南公交驾校对面	GAC Toyota	None	40.676894	114.942474	广汽丰田张家口兴和张宣路店	0313-5927777	None	https://www.gac-toyota.com.cn/province/hebei/zhangjiakou/dealer/zjkxhzxl
河北省廊坊市霸州市汽车站南1000米G106国道西广汽丰田4S店	GAC Toyota	None	39.095013	116.394574	广汽丰田霸州冠悦霸州镇店	0316-7373777	None	https://www.gac-toyota.com.cn/province/hebei/langfang/dealer/gybzzd
河北省廊坊市开发区金源道92号	GAC Toyota	None	39.579311	116.754952	广汽丰田廊坊瑞亨金源道店	0316-7089999-1	None	https://www.gac-toyota.com.cn/province/hebei/langfang/dealer/rhjydd
内蒙古巴彦淖尔市保税物流园区	GAC Toyota	None	40.87044	107.559373	广汽丰田巴彦淖尔信得惠临河店	0478-8612666	None	https://www.gac-toyota.com.cn/province/namengguzizhi/bayannaoer/dealer/bynehyxlh
内蒙古包头市青山区民族东路与110国道交汇处（石林石材城东侧）	GAC Toyota	None	40.708403	109.864066	广汽丰田包头包丰甲尔坝店	0472-3147888	None	https://www.gac-toyota.com.cn/province/namengguzizhi/baotou/dealer/btbfjeb
内蒙古赤峰市红山区桥北镇红山物流园区西一路	GAC Toyota	None	42.31122336	118.95244613	广汽丰田赤峰弘庆行桥北店	0476-8876168	None	https://www.gac-toyota.com.cn/province/namengguzizhi/chifeng/dealer/cfhqxqb
鄂尔多斯市东胜区铜川镇包府汽车城N座	GAC Toyota	None	39.792732	110.113445	广汽丰田鄂尔多斯信得惠铜川店	0477-8184888	None	https://www.gac-toyota.com.cn/province/namengguzizhi/eerduosi/dealer/eedsxdhtc
呼和浩特市金川开发区汇金道2号	GAC Toyota	None	40.80433	111.563157	广汽丰田呼和浩特亿阳金川店	0471-3602222	None	https://www.gac-toyota.com.cn/province/namengguzizhi/huhehaote/dealer/hhhtyyjc
呼和浩特市新城区呼伦贝尔北路5号	GAC Toyota	None	40.868455	111.672034	广汽丰田呼和浩特康泰新城店	0471-5162211	None	https://www.gac-toyota.com.cn/province/namengguzizhi/huhehaote/dealer/hhhtktxc
内蒙古自治区通辽市经济技术开发区阿古拉大街与东风路交汇处	GAC Toyota	None	43.655967	122.221067	广汽丰田通辽路安开发区店	0475-6336620	None	https://www.gac-toyota.com.cn/province/namengguzizhi/tongliao/dealer/tllakfq
锡林浩特市二连路火车站北1000米	GAC Toyota	None	43.936105	116.026482	广汽丰田锡林浩特嘉程开发区店	0479-8213088	None	https://www.gac-toyota.com.cn/province/namengguzizhi/xilinhaote/dealer/xlhtjckfq
内蒙古自治区兴安盟科右前旗工业园区天骄路5号	GAC Toyota	None	46.07405	121.99164	广汽丰田兴安盟宝辉前旗店	0482—2848666	None	https://www.gac-toyota.com.cn/province/namengguzizhi/xinganmeng/dealer/xambhqqd
察右前旗察哈尔工业园区达尔登大道东	GAC Toyota	None	40.96753976	113.15301227	广汽丰田乌兰察布众信集宁店	0474-3606999	None	https://www.gac-toyota.com.cn/province/namengguzizhi/wulanchabu/dealer/wlcbzxjnd
内蒙古自治区乌海市海勃湾区林荫大道与青山路交叉口东侧	GAC Toyota	None	39.70687645	106.85070809	广汽丰田乌海康泰海勃湾店	0473-3013333	None	https://www.gac-toyota.com.cn/province/namengguzizhi/wuhaishi/dealer/kthbw
内蒙古自治区呼伦贝尔市鄂温克族自治旗海伊公路东侧大鹏汽车城	GAC Toyota	None	48.841147	119.28471	广汽丰田呼伦贝尔大鹏伊敏路店	0470-2382116	None	https://www.gac-toyota.com.cn/province/namengguzizhi/hulunbeier/dealer/dpyml
山西省大同市永泰南路98号	GAC Toyota	None	40.054398	113.310074	广汽丰田大同银隆永泰店	0352-5393888	None	https://www.gac-toyota.com.cn/province/shanxi/datong/dealer/dtylyt
晋城市中原西街与凤城路交叉口往西100米	GAC Toyota	None	35.4798066	112.83418799	广汽丰田晋城悦宇中原街店	0356-8880111	None	https://www.gac-toyota.com.cn/province/shanxi/jincheng/dealer/yyzyjd
山西省晋中市榆次区汇通路鸣李段	GAC Toyota	None	37.745906	112.683595	广汽丰田晋中凯通汇通路店	0354-2463888	None	https://www.gac-toyota.com.cn/province/shanxi/jinzhong/dealer/jzkthtl
山西省临汾市尧都区尧庙镇大韩村霍候一级路西	GAC Toyota	None	36.030093	111.48346	广汽丰田临汾瑞银尧庙店	0357-2597777	None	https://www.gac-toyota.com.cn/province/shanxi/linfen/dealer/lfryym
临汾市尧都区屯里镇屯里村高河桥北一公里（滨港龙湾东侧）	GAC Toyota	None	36.1345729	111.54484131	广汽丰田临汾锦华北城店	0357-2689888	None	https://www.gac-toyota.com.cn/province/shanxi/linfen/dealer/jhbcd
吕梁市离石区田家会街道办田家会村（高速东口往东1800米）	GAC Toyota	None	37.533473	111.221518	广汽丰田吕梁华吕田家会店	0358-8348858	None	https://www.gac-toyota.com.cn/province/shanxi/lvliang/dealer/lhltjh
太原市太榆路甲151号(许西收费站旁)	GAC Toyota	None	37.785422	112.620894	广汽丰田太原黄河太榆路店	0351-7133399	None	https://www.gac-toyota.com.cn/province/shanxi/taiyuan/dealer/tyhhtyl
太原市迎泽西大街西中环口（血液中心对面）	GAC Toyota	None	37.861253	112.494289	广汽丰田锦华迎西店	0351-5681888	None	https://www.gac-toyota.com.cn/province/shanxi/taiyuan/dealer/jhyx
太原市平阳南路88号(小马村对面)	GAC Toyota	None	37.788592	112.558619	广汽丰田太原山西大昌店	0351-7998666	None	https://www.gac-toyota.com.cn/province/shanxi/taiyuan/dealer/tysxdc
太原市万柏林区新晋祠路汇豪新能源汽车城北区B01（太原理工大学长风住宅小区南100米）	GAC Toyota	None	37.831405	112.534958	广汽丰田太原广源海晋祠路店(在建店)	5286868	None	https://www.gac-toyota.com.cn/province/shanxi/taiyuan/dealer/tygyhjcld
山西省忻州市经济开发区汽贸园	GAC Toyota	None	38.461031	112.727939	广汽丰田忻州大昌开发区店	0350-3124111	None	https://www.gac-toyota.com.cn/province/shanxi/xinzhou/dealer/dckfq
山西省运城市经济技术开发区机场大道中段诺维兰汽车公园内	GAC Toyota	None	35.070823	111.032716	广汽丰田运城瑞翔机场路店	0359-2581888	None	https://www.gac-toyota.com.cn/province/shanxi/yuncheng/dealer/ycrxjcl
山西省河津市永兴西路诺维兰汽车博览城	GAC Toyota	None	35.580648	110.702289	广汽丰田河津瑞翔永兴路分店	0359-8715700	None	https://www.gac-toyota.com.cn/province/shanxi/yuncheng/dealer/hjrxyxlf
山西省运城市盐湖区运万路高速引线交界处（运城市公安局交警支队车管所对面）	GAC Toyota	None	35.092362	110.967244	广汽丰田运城大昌车检中心店(在建店)		None	https://www.gac-toyota.com.cn/province/shanxi/yuncheng/dealer/dccjzxd
山西省长治市西一环长子门村口（康宝集团对面）	GAC Toyota	None	36.18519	113.089598	广汽丰田长治锦程常青店	0355-6065618	None	https://www.gac-toyota.com.cn/province/shanxi/changzhi/dealer/czjccq
山西省阳泉市郊区李家庄乡李荫路冯家庄段（政务大厅前行200米）	GAC Toyota	None	37.92212865	113.57880954	广汽丰田阳泉致益李荫路店	0353-2599888	None	https://www.gac-toyota.com.cn/province/shanxi/yangquan/dealer/zylyld
天津市经济技术开发区第五大街53号	GAC Toyota	None	39.047399	117.718885	广汽丰田天津美利丰滨海店	022-66253388	None	https://www.gac-toyota.com.cn/province/tianjin/tianjin/dealer/tjmlfbh
天津市南开区咸阳路71号	GAC Toyota	None	39.14267894	117.14543739	广汽丰田天津信德行南开店	022-27650068	None	https://www.gac-toyota.com.cn/province/tianjin/tianjin/dealer/tjxdxnk
天津市空港经济区汽车园环河北路60号	GAC Toyota	None	39.167239	117.383853	广汽丰田天津长津祥空港店	022-58173377	None	https://www.gac-toyota.com.cn/province/tianjin/tianjin/dealer/tjcjxkg
天津市西青经济开发区赛达四支路11号	GAC Toyota	None	38.981997	117.275643	广汽丰田天津和展津港店	022-23889899	None	https://www.gac-toyota.com.cn/province/tianjin/tianjin/dealer/tjhzjg
天津市河西区解放南路613号环渤海汽车城内	GAC Toyota	None	39.060161	117.240493	广汽丰田天津汇丰行河西店	022-58188811	None	https://www.gac-toyota.com.cn/province/tianjin/tianjin/dealer/tjhfxhx
天津市北辰区北辰道2号	GAC Toyota	None	39.252433	117.183333	广汽丰田天津骏迈北辰店	022-58359000	None	https://www.gac-toyota.com.cn/province/tianjin/tianjin/dealer/tjjmbc
天津市宝坻区钰华街道南环东路南侧（机动车交易市场西区）	GAC Toyota	None	39.71571112	117.34611649	广汽丰田天津美利兴宝坻店	022-59210555	None	https://www.gac-toyota.com.cn/province/tianjin/tianjin/dealer/mlxbdd
天津市津南区滨海盛世汽车园盛裕园1号	GAC Toyota	None	38.98887762	117.48720307	广汽丰田天津中升盛世店	022-58901111	None	https://www.gac-toyota.com.cn/province/tianjin/tianjin/dealer/zsssd
佛山市佛山大道中83号佛山（国际车城）北区五座一号	GAC Toyota	None	23.013434	113.108112	广汽丰田佛山溢丰车城店	0757-82666099	None	https://www.gac-toyota.com.cn/province/guangdong/foshan/dealer/fsyfcc
广东省佛山市三水区西南镇南丰大道24号（荷花世界北行1.8公里）	GAC Toyota	None	23.214916	112.925568	广汽丰田佛山中元三水店	15363429605	None	https://www.gac-toyota.com.cn/province/guangdong/foshan/dealer/fszyss
佛山市南海区桂城海八路东桂江立交南侧	GAC Toyota	None	23.072875	113.152053	广汽丰田佛山友宏桂城店	0757-86258280	None	https://www.gac-toyota.com.cn/province/guangdong/foshan/dealer/fsyhgc
佛山市南海罗村街道南湖三路时利和车城内（华南灯饰城正对面）	GAC Toyota	None	23.066267	113.067882	广汽丰田佛山时利和罗村店	0757-66688599	None	https://www.gac-toyota.com.cn/province/guangdong/foshan/dealer/fsslhlcd
佛山市顺德区陈村镇南涌社区居民委员会南涌105国道芸香围路段22号之一	GAC Toyota	None	22.9455217	113.24751393	广汽丰田佛山溢盛陈村店	0757-29833388	None	https://www.gac-toyota.com.cn/province/guangdong/foshan/dealer/ysccd
广东省佛山市南海区佛山一环东侧水口路出口广佛汽车城	GAC Toyota	None	23.175424	113.177358	广汽丰田佛山广物一环东店	0757-85618666	None	https://www.gac-toyota.com.cn/province/guangdong/foshan/dealer/fsgwyhd
佛山市南海区大沥镇盐步穗盐西路118号一座	GAC Toyota	None	23.096035	113.172645	广汽丰田佛山中升大沥店	0757-81103333	None	https://www.gac-toyota.com.cn/province/guangdong/foshan/dealer/zsdld
佛山市顺德区大良广珠公路新松路段	GAC Toyota	None	22.859448	113.23979	广汽丰田佛山合丰大良店	18000850793	None	https://www.gac-toyota.com.cn/province/guangdong/foshan/dealer/fshfdl
佛山市禅城区南庄樵乐路吉利工业园	GAC Toyota	None	22.958912	113.039962	广汽丰田佛山金利丰南庄店	0757-82520601	None	https://www.gac-toyota.com.cn/province/guangdong/foshan/dealer/fsjlfnz
广东省佛山市顺德区龙江镇西溪工业区文昌路二街7号	GAC Toyota	None	22.873304	113.094582	广汽丰田佛山长翔龙江店	0757-23228080	None	https://www.gac-toyota.com.cn/province/guangdong/foshan/dealer/cxljd
广东省佛山市顺德容桂街道办事处天河工业区1号	GAC Toyota	None	22.7684255	113.26463095	广汽丰田佛山锦昌容桂店	0757-28888960	None	https://www.gac-toyota.com.cn/province/guangdong/foshan/dealer/jcrgd
南海区金沙镇桂丹西路11号银汇华庭首层（金沙收费站附近）	GAC Toyota	None	23.07083	112.966553	广汽丰田佛山三水中元店南海分店	0757-81797066	None	https://www.gac-toyota.com.cn/province/guangdong/foshan/dealer/fssszydnhf
佛山市南海区狮山镇穆院村委会南侧100米（佛山一环高速博爱路入口北侧50米）	GAC Toyota	None	23.13147	113.021742	广汽丰田佛山骏耀狮山店(在建店)		None	https://www.gac-toyota.com.cn/province/guangdong/foshan/dealer/fsjyssd
黄埔大道中243号（员村四横路对面）	GAC Toyota	None	23.126849	113.378417	广汽丰田第一店	020-85543222	None	https://www.gac-toyota.com.cn/province/guangdong/guangzhou/dealer/dy
广东省广州市天河区中山大道盈溪路151号	GAC Toyota	None	23.117869	113.42693	广汽丰田广州骏龙店	020-32355379	None	https://www.gac-toyota.com.cn/province/guangdong/guangzhou/dealer/gzjl/
广州市天河区广汕一路680号（地铁6号线龙洞站B出口）	GAC Toyota	None	23.197121	113.390077	广汽丰田广州元丰凤凰店	020-87032333	None	https://www.gac-toyota.com.cn/province/guangdong/guangzhou/dealer/gzyffh/
海珠区新滘东路615号（琶洲桥南行800米右转新滘东）	GAC Toyota	None	23.091202	113.369703	广汽丰田广州长宁会展店	020-22809886	None	https://www.gac-toyota.com.cn/province/guangdong/guangzhou/dealer/gzcnhz
广州市白云区白云大道北1365号(白云堡立交桥直行100米左侧)	GAC Toyota	None	23.235115	113.309119	广汽丰田广州长和永平店	020-36232222	None	https://www.gac-toyota.com.cn/province/guangdong/guangzhou/dealer/gzchyp
广东省广州市番禺区南村镇兴南大道741-757号（单数）101	GAC Toyota	None	23.016364	113.387972	广汽丰田广州瑞凯南村店	020-39950008	None	https://www.gac-toyota.com.cn/province/guangdong/guangzhou/dealer/rknc
广州市花都区新华街三东大道与百寿路交汇处	GAC Toyota	None	23.413993	113.245379	广汽丰田广州溢桂花都店	020-36998333	None	https://www.gac-toyota.com.cn/province/guangdong/guangzhou/dealer/gzyghd
广东省广州市白云区新市机场高速黄石南入口侧	GAC Toyota	None	23.204193	113.269026	广汽丰田广州长凯白云店	020-86639968	None	https://www.gac-toyota.com.cn/province/guangdong/guangzhou/dealer/gzckby
广州市番禺区市桥东环路17号（好又多对面）	GAC Toyota	None	22.935903	113.395808	广汽丰田广州诚立番禺店	020-34622688	None	https://www.gac-toyota.com.cn/province/guangdong/guangzhou/dealer/gzclfy
南沙区黄阁镇市南大道129号101（地铁4号线黄阁站A出口往东300米）	GAC Toyota	None	22.831043	113.526377	广汽丰田大昌行喜龙店	020-39033988	None	https://www.gac-toyota.com.cn/province/guangdong/guangzhou/dealer/gddcxxlsmyxg
广州市黄埔区萝岗发源路98号	GAC Toyota	None	23.26021	113.44133	广汽丰田悦享店	020-89858800	None	https://www.gac-toyota.com.cn/province/guangdong/guangzhou/dealer/yxd
广州市荔湾区花地大道中228号	GAC Toyota	None	23.079639	113.239263	广汽丰田广州逸富芳村店	020-22332288	None	https://www.gac-toyota.com.cn/province/guangdong/guangzhou/dealer/gzyffc
广州市从化区江埔街环市东路202号为正汽车城内自编106铺	GAC Toyota	None	23.54631992	113.61496929	广汽丰田广州骏龙从化店	020-87986088	None	https://www.gac-toyota.com.cn/province/guangdong/guangzhou/dealer/jnch
广州市增城区增城大道138号	GAC Toyota	None	23.284649	113.802129	广汽丰田广州亿升增城店	020-82661111	None	https://www.gac-toyota.com.cn/province/guangdong/guangzhou/dealer/gzyszc
广东省广州市海珠区江南大道南1088号	GAC Toyota	None	23.07755461	113.29272221	广汽丰田广州长晴海珠店(在建店)		None	https://www.gac-toyota.com.cn/province/guangdong/guangzhou/dealer/cqhzd
江门市江海区滘头工业园滘兴东路8号	GAC Toyota	None	22.55525	113.090889	广汽丰田江门永佳江海店	0750-3781888	None	https://www.gac-toyota.com.cn/province/guangdong/jiangmen/dealer/yjjhd
台山市西湖路西湖外商投资示范区朗诚汽车城	GAC Toyota	None	22.24425744	112.8189175	广汽丰田台山邑兴朗诚店	0750-5557777	None	https://www.gac-toyota.com.cn/province/guangdong/jiangmen/dealer/tsyxlcd
江门市新会区新会大道东6号	GAC Toyota	None	22.51191792	113.05138514	广汽丰田江门宗通大都会店	0750-6169998	None	https://www.gac-toyota.com.cn/province/guangdong/jiangmen/dealer/jmztddh
广东省江门市蓬江区江沙路收费站西侧	GAC Toyota	None	22.650809	113.067441	广汽丰田江门海之达江沙店	0750-3688999	None	https://www.gac-toyota.com.cn/province/guangdong/jiangmen/dealer/jmhzdjs
广东省开平市水口镇红进村民委员会水边开发区2号地	GAC Toyota	None	22.393959	112.714817	广汽丰田开平金俊振华店	0750-2207585	None	https://www.gac-toyota.com.cn/province/guangdong/jiangmen/dealer/kpjjjh
恩平市精文汽车商贸城南侧地块	GAC Toyota	None	22.234972	112.357349	广汽丰田恩平海之骏恩城店	0750-7755666	None	https://www.gac-toyota.com.cn/province/guangdong/jiangmen/dealer/ephzjec
广东省江门市鹤山市雅瑶镇佛开高速陈山出口江沙路旁	GAC Toyota	None	22.73720303	113.00400051	广汽丰田鹤山宗通雅瑶分店	0750-8390086	None	https://www.gac-toyota.com.cn/province/guangdong/jiangmen/dealer/hsztyy
广东省茂名市茂南开发区茂南大道一路71号	GAC Toyota	None	21.638127	110.922238	广汽丰田茂名茂鑫茂南店	0668-2818666	None	https://www.gac-toyota.com.cn/province/guangdong/maoming/dealer/mmmxmn
广东省茂名市高水路288号	GAC Toyota	None	21.689815	110.952745	广汽丰田茂名宝盈金宁店	0668-2626888	None	https://www.gac-toyota.com.cn/province/guangdong/maoming/dealer/mmbyjnd
广东省茂名信宜市东镇六运横京塘村梁若广首层广汽丰田4S店【东莞大朗（信宜）产业转移工业园斜对面】	GAC Toyota	None	22.305095	110.944436	广汽丰田信宜中裕六运店	0668-8868166	None	https://www.gac-toyota.com.cn/province/guangdong/maoming/dealer/xyzylyd
清远市小市新城广清大道南菱汽车城（云山诗意斜对面）	GAC Toyota	None	23.670954	113.059325	广汽丰田清远南菱新城店	0763-6899666	None	https://www.gac-toyota.com.cn/province/guangdong/qingyuan/dealer/qynlxc
清远市高新技术开发区创兴大道建设二路港鸿汽车城6号A-14清远瑞凯丰田高新店	GAC Toyota	None	23.63858944	113.06707227	广汽丰田清远瑞凯高新店	0763-6886022	None	https://www.gac-toyota.com.cn/province/guangdong/qingyuan/dealer/rkgxd
韶关市浈江区韶南大道七公里东侧	GAC Toyota	None	24.74321	113.587718	广汽丰田韶关荣晖韶南店	0751-8291666	None	https://www.gac-toyota.com.cn/province/guangdong/shaoguan/dealer/rhsnd
广东省阳江市江城区高凉路南侧	GAC Toyota	None	21.850334	112.004328	广汽丰田阳江溢源城南店	0662-2263888	None	https://www.gac-toyota.com.cn/province/guangdong/yangjiang/dealer/yjyycn
广东省阳江市阳东区东城镇广雅路与东风四路交汇处（石化加油站旁）	GAC Toyota	None	21.89766739	112.03596742	广汽丰田阳江宝威广雅路店	0662-6883333	None	https://www.gac-toyota.com.cn/province/guangdong/yangjiang/dealer/bwgyld
广东省云浮市环市东路牧羊朱屋村与罗沙稔塘村交界处	GAC Toyota	None	22.957964	112.070982	广汽丰田云浮利泰云城店	0766-8751888	None	https://www.gac-toyota.com.cn/province/guangdong/yunfu/dealer/yfltyc
广东省湛江市赤坎区椹川大道北50号2幢	GAC Toyota	None	21.253454	110.377918	广汽丰田湛江骏诚椹川北店	0759-3130122	None	https://www.gac-toyota.com.cn/province/guangdong/zhanjiang/dealer/zjjcrmb
广东省湛江市赤坎区东盛路7号湛江海田国际车城商贸市场-s18	GAC Toyota	None	21.305091	110.386525	广汽丰田湛江华富海田店	0759-3192999	None	https://www.gac-toyota.com.cn/province/guangdong/zhanjiang/dealer/hfht
肇庆市端州区站港北路南侧8区肇庆市内河石油运输有限公司厂房之二	GAC Toyota	None	23.082097	112.42787	广汽丰田肇庆美昌城西店	0758-2896888	None	https://www.gac-toyota.com.cn/province/guangdong/zhaoqing/dealer/mccx
肇庆市端州区321国道过境公路以南工商学院对面	GAC Toyota	None	23.099693	112.495068	广汽丰田肇庆顺丰端州店	0758-2706628	None	https://www.gac-toyota.com.cn/province/guangdong/zhaoqing/dealer/zqsfdz
四会市城中街道省道263线南面高狮村第八卡	GAC Toyota	None	23.36707372	112.67948786	广汽丰田肇庆端州顺丰店四会分店	0758-3283283	None	https://www.gac-toyota.com.cn/province/guangdong/zhaoqing/dealer/zqdzsfdshf
中山市东区长江北路12-16号	GAC Toyota	None	22.519551	113.430653	广汽丰田中山合田长江店	0760-22220000	None	https://www.gac-toyota.com.cn/province/guangdong/zhongshan/dealer/zshtcj
中山市沙溪镇新濠路2号之二	GAC Toyota	None	22.513871	113.343307	广汽丰田中山国兴沙溪店	0760-86220202	None	https://www.gac-toyota.com.cn/province/guangdong/zhongshan/dealer/zsgxsx
中山市港口镇民创街2号	GAC Toyota	None	22.569854	113.410518	广汽丰田中山宏昌蝴蝶桥店	0760-86223188	None	https://www.gac-toyota.com.cn/province/guangdong/zhongshan/dealer/hchdq
广东省中山西区沙朗105国道广珠西线高架旁(老大洋电机右侧)	GAC Toyota	None	22.5815	113.332406	广汽丰田中山庆丰沙朗店	0760-88888818	None	https://www.gac-toyota.com.cn/province/guangdong/zhongshan/dealer/zsqfsl
广东省中山市小榄镇菊城大道西永宁路段	GAC Toyota	None	22.652056	113.23131	广汽丰田中山合盈菊城店	0760-22822000	None	https://www.gac-toyota.com.cn/province/guangdong/zhongshan/dealer/zshyjc
广东省珠海市香洲区前山工业区华宇路99号（上冲国际名车城）	GAC Toyota	None	22.293229	113.503488	广汽丰田珠海景田名车城店	0756-8517777	None	https://www.gac-toyota.com.cn/province/guangdong/zhuhai/dealer/zhjtmcc
广东省珠海市金湾区红旗镇珠海大道6698号广东美满集团有限公司2号厂房一楼1-8轴A-G	GAC Toyota	None	22.12178718	113.33377277	广汽丰田珠海瑞荣丰金湾店	0756-7613888	None	https://www.gac-toyota.com.cn/province/guangdong/zhuhai/dealer/rrfjwd
广东省珠海市香洲区南屏科技园屏西三路一号	GAC Toyota	None	22.213924	113.462413	广汽丰田珠海长硕南屏店	0756-8111688	None	https://www.gac-toyota.com.cn/province/guangdong/zhuhai/dealer/csnpd
深圳市罗湖区北环大道1016号	GAC Toyota	None	22.577446	114.092323	广汽丰田深圳企沃银湖店	0755-82448888	None	https://www.gac-toyota.com.cn/province/guangdong/shenzhen/dealer/szqwyh
深圳市龙岗区横岗街道荷坳社区荷花路108号101（地铁龙岗线荷坳站B出口）	GAC Toyota	None	22.68019	114.232903	广汽丰田深圳裕龙龙岗店	0755-28222222	None	https://www.gac-toyota.com.cn/province/guangdong/shenzhen/dealer/szyllg
深圳市南山区西丽街道丽水路1052号	GAC Toyota	None	22.557939	113.988151	广汽丰田深圳兆方南山店	0755-26755666	None	https://www.gac-toyota.com.cn/province/guangdong/shenzhen/dealer/szzfns
广东省深圳市宝安区新安街道创业二路与大宝路交汇处	GAC Toyota	None	22.583828	113.919583	广汽丰田深圳大兴大宝店	0755-66820000	None	https://www.gac-toyota.com.cn/province/guangdong/shenzhen/dealer/szdxdbd
广东省深圳市龙华新区民治街道民康路1号龙华名车广场内（8号仓奥特莱斯相邻）	GAC Toyota	None	22.623849	114.062257	广汽丰田深圳中升龙华店	0755-26899888	None	https://www.gac-toyota.com.cn/province/guangdong/shenzhen/dealer/szydqhw
广东省深圳市福田区福田汽车站南侧（白石路东）	GAC Toyota	None	22.537394	114.023449	广汽丰田深圳鹏峰福田店	0755-83578989	None	https://www.gac-toyota.com.cn/province/guangdong/shenzhen/dealer/szpfft
深圳市罗湖区罗芳路108号江洲大厦一楼（新秀地铁A出口十字向南100米）	GAC Toyota	None	22.55249	114.154432	广汽丰田深圳深美昌罗芳店	0755-25139988	None	https://www.gac-toyota.com.cn/province/guangdong/shenzhen/dealer/szsmclf
深圳市宝安区前进二路104号	GAC Toyota	None	22.598414	113.887857	广汽丰田深圳深业宝安店	0755-27936666	None	https://www.gac-toyota.com.cn/province/guangdong/shenzhen/dealer/szsyba
深圳市南山区宝安大道嘉进隆前海汽车城A-01	GAC Toyota	None	22.551293	113.914845	广汽丰田深圳大兴通商店	0755-26460000	None	https://www.gac-toyota.com.cn/province/guangdong/shenzhen/dealer/szdxts
广东省深圳市宝安区福永街道凤凰立交北侧01号	GAC Toyota	None	22.698983	113.839326	广汽丰田深圳中升福永店	0755-27300733	None	https://www.gac-toyota.com.cn/province/guangdong/shenzhen/dealer/szzsfy
深圳市龙华区观澜街道新澜社区观光路1319-9号101广汽丰田4S店	GAC Toyota	None	22.72867384	114.04241522	广汽丰田深圳中升观澜店	0755-21084685	None	https://www.gac-toyota.com.cn/province/guangdong/shenzhen/dealer/zsgld
深圳市光明新区凤凰街道塘尾社区光明大道18号光国强兴丰工业园	GAC Toyota	None	22.742338	113.910426	广汽丰田深圳中升光明大道店	0755-29199858	None	https://www.gac-toyota.com.cn/province/guangdong/shenzhen/dealer/szzsgmdd
广西省北海市北海大道工业园区26号	GAC Toyota	None	21.530368	109.197053	广汽丰田北海沃达工业园店	0779—3838688	None	https://www.gac-toyota.com.cn/province/guangxi/beihai/dealer/wdgyy
桂林灵川八里街八里七路6号	GAC Toyota	None	25.359768	110.318878	广汽丰田桂林企沃桂北店	0773-2667666	None	https://www.gac-toyota.com.cn/province/guangxi/guilin/dealer/glqwgb
柳州市西江路80号	GAC Toyota	None	7.161741	109.466816	广汽丰田柳州华翔西江路店	0772-3161222	None	https://www.gac-toyota.com.cn/province/guangxi/liuzhou/dealer/lzhxxjl
柳州市柳北区胜利路柳北大润发旁	GAC Toyota	None	24.369758	109.40902	广汽丰田柳州北城胜利路店	0772-2819933	None	https://www.gac-toyota.com.cn/province/guangxi/liuzhou/dealer/bcslld
广西省南宁市兴宁区金川路2号	GAC Toyota	None	22.868915	108.371884	广汽丰田南宁大舆邕宾店	0771-3121888	None	https://www.gac-toyota.com.cn/province/guangxi/nanning/dealer/nndyyb
南宁市高新区科技园5号区高新一路1-1号	GAC Toyota	None	22.861995	108.279698	广汽丰田南宁广缘高新区店	0771-3222118	None	https://www.gac-toyota.com.cn/province/guangxi/nanning/dealer/nngygxq
南宁市白沙大道18-1号	GAC Toyota	None	22.79018973	108.33280979	广汽丰田南宁迅利江南店	0771-4889918	None	https://www.gac-toyota.com.cn/province/guangxi/nanning/dealer/nnxljn
南宁市经开区那历路东侧、国凯大道北侧	GAC Toyota	None	22.774484	108.264581	广汽丰田南宁中升国凯大道店	0771-5686108	None	https://www.gac-toyota.com.cn/province/guangxi/nanning/dealer/zsgkdd
广西梧州市长洲区竹湾路5号	GAC Toyota	None	23.464347	111.267754	广汽丰田梧州荣晖长洲店	0774-3909666	None	https://www.gac-toyota.com.cn/province/guangxi/wuzhou/dealer/wzrhcz
广西玉林市二环路东侧经济开发区内	GAC Toyota	None	22.635823	110.201011	广汽丰田玉林广缘经开区店	0775-2673111	None	https://www.gac-toyota.com.cn/province/guangxi/yulin/dealer/ylgyjkq
贵港市金港大道613号	GAC Toyota	None	23.110507	109.63251	广汽丰田贵港东汇金港店	0775-6797018	None	https://www.gac-toyota.com.cn/province/guangxi/guigang/dealer/ggdhjg
广西省钦州市金海湾大街95号（北部湾建材市场西面）	GAC Toyota	None	21.945695	108.642167	广汽丰田钦州广缘金海湾店	0777-3523388	None	https://www.gac-toyota.com.cn/province/guangxi/qinzhou/dealer/qzgyjhwqcxsfwyxg
贺州市八步区莲塘镇古柏生态工业园	GAC Toyota	None	24.3743	111.622122	广汽丰田贺州均富八步店	0774-5675778	None	https://www.gac-toyota.com.cn/province/guangxi/hezhou/dealer/hzjfbb
广西省河池市金城江区南环路南侧	GAC Toyota	None	24.677592	108.074716	广汽丰田河池中达金城江店	0778-2718111	None	https://www.gac-toyota.com.cn/province/guangxi/hechi/dealer/zdjcj
百色市右江区大旺路与进港大道交叉口东侧地块（大旺村第六组三产安置用地）	GAC Toyota	None	23.860745	106.651649	广汽丰田百色广缘龙旺店	0776-2806667	None	https://www.gac-toyota.com.cn/province/guangxi/baise/dealer/gylw
海南省海口市秀英区海秀镇椰海大道322号	GAC Toyota	None	19.978394	110.17749	广汽丰田海口中升嘉翔南海店	0898-68665000	None	https://www.gac-toyota.com.cn/province/hainan/haikou/dealer/hkjxnh
海南省海口市美兰区琼山大道289-1号	GAC Toyota	None	19.995462	110.424141	广汽丰田海口中升美兰店	0898-68661000	None	https://www.gac-toyota.com.cn/province/hainan/haikou/dealer/hkjhml
海南省三亚市吉阳区吉阳荔枝沟学院路36号	GAC Toyota	None	18.302394	109.533961	广汽丰田三亚中升迎宾店	0898-88711881	None	https://www.gac-toyota.com.cn/province/hainan/sanya/dealer/syjhyb
福州市仓山区福峡路755号（黄山车管所旁）	GAC Toyota	None	26.006865	119.363233	广汽丰田福州嘉利德斯店	0591-88033068（总机）	None	https://www.gac-toyota.com.cn/province/fujian/fuzhou/dealer/fzjlds
福州市仓山区则徐大道323号	GAC Toyota	None	26.035091	119.339064	广汽丰田福州宾联仓山店	0591-83434626	None	https://www.gac-toyota.com.cn/province/fujian/fuzhou/dealer/fzblcs
福建省福州市仓山区福湾路台屿长埕村2号楼	GAC Toyota	None	26.019004	119.286533	广汽丰田福州中升奥体店	0591-62073333	None	https://www.gac-toyota.com.cn/province/fujian/fuzhou/dealer/zsat
福州市闽侯县荆溪镇永丰浦里社区119号	GAC Toyota	None	26.11381864	119.24887933	广汽丰田福州国戎淮安店	0591-22617766	None	https://www.gac-toyota.com.cn/province/fujian/fuzhou/dealer/fzgswa
福清市清荣大道高仑村路段	GAC Toyota	None	40.564162	119.332395	广汽丰田福清华达清荣店	0591-62813333	None	https://www.gac-toyota.com.cn/province/fujian/fuzhou/dealer/fqhdqr
龙岩市新罗区龙门镇物流大道332号	GAC Toyota	None	25.102081	116.97922	广汽丰田龙岩国贸龙门店	0597-2022222	None	https://www.gac-toyota.com.cn/province/fujian/longyan/dealer/lygmlm
福建省龙岩市上杭县行政服务中心A座1楼	GAC Toyota	None	25.03680004	116.45305647	广汽丰田龙岩国贸上杭分店	0597-3813988	None	https://www.gac-toyota.com.cn/province/fujian/longyan/dealer/lygmshf
福建省龙岩市长汀县环城北路新民开发区	GAC Toyota	None	25.849185	116.364025	广汽丰田龙岩国贸长汀分店	0597-6860666	None	https://www.gac-toyota.com.cn/province/fujian/longyan/dealer/gmcdf
福建省南平市延平区水溪口交通枢纽中心	GAC Toyota	None	26.589208	118.131361	广汽丰田南平福瑞延平店	0599-8636611	None	https://www.gac-toyota.com.cn/province/fujian/nanping/dealer/npfryp
福建省莆田市荔城区荔园路口（红旗加油站斜对面）	GAC Toyota	None	25.469448	119.047362	广汽丰田莆田德盛兴公园店	0594-5939999	None	https://www.gac-toyota.com.cn/province/fujian/putian/dealer/ptdsxgy
福建省仙游县鲤南镇城南东路2288号	GAC Toyota	None	25.34867461	118.72686276	广汽丰田莆田大川仙游店	0594-8255666	None	https://www.gac-toyota.com.cn/province/fujian/putian/dealer/dcxydd
福建省莆田市仙游县鲤南工业区90号(九隆广场斜对面）	GAC Toyota	None	25.34867561	118.72686376	广汽丰田莆田大川仙游分店	0594-6663555	None	https://www.gac-toyota.com.cn/province/fujian/putian/dealer/ptdcxyf
泉州市鲤城区江南高新技术电子园区1号（经贸学院斜对面）	GAC Toyota	None	24.913067	118.546209	广汽丰田泉州亿鑫江南店	0595-68089999	None	https://www.gac-toyota.com.cn/province/fujian/quanzhou/dealer/qzyxjn
福建省泉州晋江市和平中路36号（机场往石狮方向1公里）	GAC Toyota	None	24.801569	118.587906	广汽丰田晋江新中利青阳店	0595-28085999	None	https://www.gac-toyota.com.cn/province/fujian/quanzhou/dealer/jjxzlqy
福建省泉州市石狮市灵秀镇石龙路21-29号	GAC Toyota	None	24.7201888	118.62551243	广汽丰田石狮嘉程石龙路店	0595-36897777	None	https://www.gac-toyota.com.cn/province/fujian/quanzhou/dealer/ssjcslld
福建省泉州市丰泽区大坪路2号(坪山加油站对面路口80米)	GAC Toyota	None	24.911666	118.631348	广汽丰田泉州汇京大坪山店	0595-36268888	None	https://www.gac-toyota.com.cn/province/fujian/quanzhou/dealer/qzhjdps
福建省泉州经济技术开发区安泰路18号	GAC Toyota	None	24.94482528	118.67688409	广汽丰田泉州悦通清濛店	0595-26566666	None	https://www.gac-toyota.com.cn/province/fujian/quanzhou/dealer/qzytqmd
福建省三明市梅列区翁墩物流工业园	GAC Toyota	None	26.301818	117.656381	广汽丰田三明鑫泰物流园店	0598-8268666	None	https://www.gac-toyota.com.cn/province/fujian/sanming/dealer/smxtwly
厦门市湖里区高崎北路130号	GAC Toyota	None	24.549332	118.133207	广汽丰田厦门信达机场店	0592-5791888	None	https://www.gac-toyota.com.cn/province/fujian/xiamen/dealer/xmxdjc
厦门市海沧区马青路1019号	GAC Toyota	None	24.495301	118.005642	广汽丰田厦门盛元嘉丰海沧店	0592-6896633	None	https://www.gac-toyota.com.cn/province/fujian/xiamen/dealer/xmsyjfchd
福建省厦门市湖里区火炬北路7号	GAC Toyota	None	24.527414	118.12682	广汽丰田厦门国戎马垅店	0592-5703666	None	https://www.gac-toyota.com.cn/province/fujian/xiamen/dealer/xmgrml
福建省厦门市集美区后溪镇岩兴路138号	GAC Toyota	None	24.640834	118.064888	广汽丰田厦门国戎集美店	0592-6375600	None	https://www.gac-toyota.com.cn/province/fujian/xiamen/dealer/gmsdqc
福建省厦门市同安区集安路13-17号	GAC Toyota	None	24.70246	118.14311	广汽丰田厦门国戎同安店	0592-5612858	None	https://www.gac-toyota.com.cn/province/fujian/xiamen/dealer/gmtad
福建省漳州市芗城区金峰开发区石亭镇闽南汽车城	GAC Toyota	None	24.580063	117.61333	广汽丰田漳州丰盛金峰店	0596-2663888	None	https://www.gac-toyota.com.cn/province/fujian/zhangzhou/dealer/fsjfd
漳州市龙文区龙文北路109号	GAC Toyota	None	24.536702	117.725959	广汽丰田漳州兴鑫龙文店	0596-2067888、0596-2028666	None	https://www.gac-toyota.com.cn/province/fujian/zhangzhou/dealer/zzxxlw
漳州市漳浦县通站大道汽车4S产业园（324国道往动车站方向）	GAC Toyota	None	24.13038	117.60271	广汽丰田漳州嘉瑞漳浦店	0596-3623777	None	https://www.gac-toyota.com.cn/province/fujian/zhangzhou/dealer/zzzpjr
广东省潮安区浮洋镇潮汕公路新丰路段东侧	GAC Toyota	None	23.598483	116.6061	广汽丰田潮州合记浮洋店	0768-6800666	None	https://www.gac-toyota.com.cn/province/guangdong/chaozhou/dealer/czhjfy
广东省东莞市南城区莞太大道白马路段387号	GAC Toyota	None	22.9865	113.715587	广汽丰田东莞合信南城店	0769-22990000	None	https://www.gac-toyota.com.cn/province/guangdong/dongwan/dealer/dwhxnc
东莞市大岭山镇大塘村福塘街166号	GAC Toyota	None	22.884277	113.849121	广汽丰田东莞美悦大岭山店	0769-83350083	None	https://www.gac-toyota.com.cn/province/guangdong/dongwan/dealer/d44SB0
东莞市塘厦镇林村东深二路北2号	GAC Toyota	None	22.851598	114.111438	广汽丰田东莞东鑫塘厦店	0769-82080777	None	https://www.gac-toyota.com.cn/province/guangdong/dongwan/dealer/dwdxtx
东莞市寮步镇香市路东莞国际汽车城A-01-07号	GAC Toyota	None	23.021429	113.85612	广汽丰田东莞骏鸣寮步店	0769-83030000	None	https://www.gac-toyota.com.cn/province/guangdong/dongwan/dealer/dwjmlb
东莞市厚街镇溪头康乐南路段	GAC Toyota	None	22.895967	113.658509	广汽丰田东莞永佳厚街店	0769-81633777	None	https://www.gac-toyota.com.cn/province/guangdong/dongwan/dealer/dwyjhj
东莞市虎门镇大宁麒麟西路旁(虎门高速公路出口500米)	GAC Toyota	None	22.819988	113.718246	广汽丰田东莞华美虎门店	0769-85017888	None	https://www.gac-toyota.com.cn/province/guangdong/dongwan/dealer/dwhmhm
东莞市常平镇金美环常西路6-9号	GAC Toyota	None	22.966096	113.973652	广汽丰田东莞合禾常平店	0769-81085555	None	https://www.gac-toyota.com.cn/province/guangdong/dongwan/dealer/dwhhcp
东莞市长安镇宵边社区德政中路129号-1	GAC Toyota	None	22.819003	113.830571	广汽丰田东莞华鑫长安店	0769-85332299	None	https://www.gac-toyota.com.cn/province/guangdong/dongwan/dealer/d44S70
东莞市石排镇石排大道燕窝路段	GAC Toyota	None	23.088335	113.963946	广汽丰田东莞合瑞石排店	0769-82795555	None	https://www.gac-toyota.com.cn/province/guangdong/dongwan/dealer/dgrsp
广东省东莞市大朗镇富民中路961号(捷隆盛物流园前)	GAC Toyota	None	22.920494	113.965826	广汽丰田东莞永诚大朗店	0769-28822999	None	https://www.gac-toyota.com.cn/province/guangdong/dongwan/dealer/ycdld
广东省东莞市万江区莞穗路谷涌路段莞穗立交桥旁	GAC Toyota	None	23.070303	113.701719	广汽丰田东莞合悦万江店	0769-22998555	None	https://www.gac-toyota.com.cn/province/guangdong/dongwan/dealer/dghywj
东莞市东城街道牛山工业区莞长路西1号	GAC Toyota	None	22.972262	113.781645	广汽丰田东莞中升东城店	0769-22279666	None	https://www.gac-toyota.com.cn/province/guangdong/dongwan/dealer/dgzsdc
广东省河源市明珠开发区河埔大道西创业三路南	GAC Toyota	None	23.701135	114.692611	广汽丰田河源汇源明珠店	0762-3111999	None	https://www.gac-toyota.com.cn/province/guangdong/heyuan/dealer/hyhymz
惠州市河南岸下马庄15号小区（三环天虹旁）	GAC Toyota	None	23.064276	114.422944	广汽丰田惠州俊峰惠城店	0752-2580838###0752-2580828/2580838	None	https://www.gac-toyota.com.cn/province/guangdong/huizhou/dealer/hzjfhc
惠州市惠城区三栋镇上洞村坦陂路口第9轴-16轴	GAC Toyota	None	22.999949	114.447239	广汽丰田惠州惠美昌三栋店	0752-2622999	None	https://www.gac-toyota.com.cn/province/guangdong/huizhou/dealer/hzhmcsd
广东省惠州市江北金龙大道51号区	GAC Toyota	None	23.163679	114.433777	广汽丰田惠州佳凯金龙路店	0752-5758888	None	https://www.gac-toyota.com.cn/province/guangdong/huizhou/dealer/hzjkjll
广东省惠州市惠阳区淡水镇桥背村惠南大道边（距建设局100米）	GAC Toyota	None	22.827316	114.465977	广汽丰田惠州志通惠南店	0752-3761198	None	https://www.gac-toyota.com.cn/province/guangdong/huizhou/dealer/hzzthn
惠州市仲恺高新区陈江横一路2号仲恺汽车城第1栋S1号	GAC Toyota	None	23.036269	114.338899	广汽丰田惠州合瑞仲恺店	0752-5848555	None	https://www.gac-toyota.com.cn/province/guangdong/huizhou/dealer/hrzk
惠州市惠城区大湖溪惠州大道与三环路交汇处	GAC Toyota	None	23.086703	114.462816	广汽丰田惠州优之杰大湖溪店	0752-2696699	None	https://www.gac-toyota.com.cn/province/guangdong/huizhou/dealer/hzyzjdhxd
广东省揭阳市揭东县揭东经济开发区206国道南侧（揭东大圆往汕头方向500米处）	GAC Toyota	None	23.539768	116.470377	广汽丰田揭阳恒福榕江店	0663-3250228	None	https://www.gac-toyota.com.cn/province/guangdong/jieyang/dealer/hfrj
广东省普宁市燎原街道泥沟高速出口普宁职校教学实训楼首层	GAC Toyota	None	23.33395	116.160828	广汽丰田揭阳鸿福普宁店	0663-7636333	None	https://www.gac-toyota.com.cn/province/guangdong/jieyang/dealer/hfpn
梅州市梅江区梅塘东路45号	GAC Toyota	None	24.277472	116.117726	广汽丰田梅州俊诚梅江店	0753-2333888	None	https://www.gac-toyota.com.cn/province/guangdong/meizhou/dealer/mzjcmj
梅州市梅县区扶大高管会剑英大道梅县文化汽车城内	GAC Toyota	None	24.265656	116.086995	广汽丰田梅州嘉骏梅县店	0753-2268999	None	https://www.gac-toyota.com.cn/province/guangdong/meizhou/dealer/jjmxd
广东省汕头市龙湖区长平路190号	GAC Toyota	None	23.368005	116.762702	广汽丰田合众长平店	0754-88787873	None	https://www.gac-toyota.com.cn/province/guangdong/shantou/dealer/sthzzj
汕头市高新区科技西路1号	GAC Toyota	None	23.387846	116.724066	广汽丰田汕头聚诚高新区店	0754-88468888	None	https://www.gac-toyota.com.cn/province/guangdong/shantou/dealer/stjcgxq
广东省汕头市潮南区峡山街道练南村国道324广汕公路旁广汽丰田4S店	GAC Toyota	None	23.255899	116.471634	广汽丰田汕头广物潮南店	0754-82110088	None	https://www.gac-toyota.com.cn/province/guangdong/shantou/dealer/gwcnd
广东省汕尾市区海汕公路东侧汕尾高新区红草园区范围内	GAC Toyota	None	22.855396	115.358211	广汽丰田汕尾中悦高新区店	0660-6150888	None	https://www.gac-toyota.com.cn/province/guangdong/shanwei/dealer/d44N10
江西省赣州市赣南大道赣南汽车城内	GAC Toyota	None	25.755622	114.847814	广汽丰田赣州中睿赣南大道店	0797-6636688	None	https://www.gac-toyota.com.cn/province/jiangxi/ganzhou/dealer/gzzygndd
江西省赣州市经济技术开发区金岭路与金蝉南路交叉口西侧	GAC Toyota	None	25.845443	114.891361	广汽丰田赣州中升金岭店	0797-8326777	None	https://www.gac-toyota.com.cn/province/jiangxi/ganzhou/dealer/zsjl
江西省吉安市吉州区钓源大道1号凯旋汽车城6号楼一层	GAC Toyota	None	27.12920099	114.90991699	广汽丰田吉安金弓吉州店	0796-2133888	None	https://www.gac-toyota.com.cn/province/jiangxi/jian/dealer/jgjzd
江西省吉安市青原区青原汽车文化贸易城	GAC Toyota	None	27.137746	115.050738	广汽丰田吉安丰安青原店	0796-8111666	None	https://www.gac-toyota.com.cn/province/jiangxi/jian/dealer/jafaqy
江西省九江市庐山大道70号	GAC Toyota	None	29.710675	116.030772	广汽丰田九江江丰庐山店	0792-8508888	None	https://www.gac-toyota.com.cn/province/jiangxi/jiujiang/dealer/jjjfls
江西省南昌市青山湖区京东南大道366号	GAC Toyota	None	28.65350715	115.97179708	广汽丰田南昌中升京东店	0791-82071111	None	https://www.gac-toyota.com.cn/province/jiangxi/nanchang/dealer/nczxjd
南昌市三店西路319号	GAC Toyota	None	28.636159	115.911171	广汽丰田南昌永盛象湖店	0791-85220099	None	https://www.gac-toyota.com.cn/province/jiangxi/nanchang/dealer/ncysxh
南昌市西湖区抚生路南昌大桥南匝道边	GAC Toyota	None	28.660381	115.883153	广汽丰田南昌国力洪城店	0791-86576616	None	https://www.gac-toyota.com.cn/province/jiangxi/nanchang/dealer/ncglhc
江西省南昌市高新区京东大道1189号	GAC Toyota	None	28.71205569	115.9718048	广汽丰田南昌中升火炬店	0791-82157779	None	https://www.gac-toyota.com.cn/province/jiangxi/nanchang/dealer/zshjd
江西省萍乡市安源新区汽车城（安源交警大队对面）	GAC Toyota	None	27.624692	113.888843	广汽丰田萍乡福源韶山路店	0799-6666222	None	https://www.gac-toyota.com.cn/province/jiangxi/pingxiang/dealer/pxfyssl
江西省上饶市三清山西大道月亮湾汽车城（高速公路西出口）	GAC Toyota	None	28.4549	117.904205	广汽丰田上饶永盛月亮湾店	0793-8666111	None	https://www.gac-toyota.com.cn/province/jiangxi/shangrao/dealer/srysylw
江西省宜春市环城西路泉塘下320国道旁	GAC Toyota	None	28.28400907	115.03147317	广汽丰田宜春广达环城路店	0795-3182222	None	https://www.gac-toyota.com.cn/province/jiangxi/yichun/dealer/ycgdhcl
江西省宜春市高安市高新技术产业园区广汽丰田专营店	GAC Toyota	None	28.44327876	115.40359994	广汽丰田宜春丰高高安店(在建店)		None	https://www.gac-toyota.com.cn/province/jiangxi/yichun/dealer/ycfggad
新余市万商红中心物流园区	GAC Toyota	None	27.799023	114.873287	广汽丰田新余利泰仙女湖店	0790-6799868	None	https://www.gac-toyota.com.cn/province/jiangxi/xinyu/dealer/xyltxnh
江西省抚州市抚北工业园区广银大道中段	GAC Toyota	None	28.020164	116.29368	广汽丰田抚州汇佳抚北店	0794-7828888	None	https://www.gac-toyota.com.cn/province/jiangxi/fuzhou/dealer/hjfb
兰州市安宁区北滨河西路1748号	GAC Toyota	None	36.13962	103.62942	广汽丰田兰州丰易达沙井驿店	0931-2511188	None	https://www.gac-toyota.com.cn/province/gansu/lanzhou/dealer/lzfydxc
甘肃省兰州市大沙坪高速公路出口向北200米	GAC Toyota	None	36.127808	103.829568	广汽丰田兰州禾丰大沙坪店	0931-8366333	None	https://www.gac-toyota.com.cn/province/gansu/lanzhou/dealer/lzhfdsp
甘肃省张掖市甘州区滨河新区绿洲现代物流园金岛汽车城	GAC Toyota	None	38.93592378	100.4000555	广汽丰田张掖越丰金岛店	0936-8551777	None	https://www.gac-toyota.com.cn/province/gansu/zhangye/dealer/lzzyyfjd
酒泉市肃州区西郊工业园区飞天路577号	GAC Toyota	None	39.766361	98.445613	广汽丰田酒泉丰易达工业园店	0937-2600750	None	https://www.gac-toyota.com.cn/province/gansu/jiuquan/dealer/d62F10
甘肃省庆阳市西峰区庆化大道陇东汽车城	GAC Toyota	None	35.806819	107.608465	广汽丰田庆阳新丰泰陇东店	0934-8858168	None	https://www.gac-toyota.com.cn/province/gansu/qingyang/dealer/d62M10
甘肃省天水市麦积区花牛镇华世汽车城院内	GAC Toyota	None	34.55955955	105.87760714	广汽丰田天水永坤羲皇大道店	0938-6868520	None	https://www.gac-toyota.com.cn/province/gansu/tianshui/dealer/ykxhdd
甘肃省平凉市崆峒区柳湖乡八里村（炮团对面）	GAC Toyota	None	35.56793338	106.64573494	广汽丰田平凉国喜八里桥店	0933-8888668	None	https://www.gac-toyota.com.cn/province/gansu/pingliang/dealer/gxblqd
甘肃省武威市凉州区城西沿金色大道金仕恒泰汽车城广汽丰田4S店	GAC Toyota	None	37.969009	102.600519	广汽丰田武威禾瑞丰金沙店	0935-2338000	None	https://www.gac-toyota.com.cn/province/gansu/wuwei/dealer/hrfjsd
甘肃省白银市白银区银西工业园车管所对面	GAC Toyota	None	36.52033875	104.10945323	广汽丰田白银禾裕丰银西店(在建店)		None	https://www.gac-toyota.com.cn/province/gansu/baiying/dealer/byyfyxd
贵阳市通源金阳汽车文化广场（市级行政中心西行800米）	GAC Toyota	None	26.649837	106.617689	广汽丰田贵阳通源金阳店	0851-87986333	None	https://www.gac-toyota.com.cn/province/guizhou/guiyang/dealer/gytyjy
贵州省贵阳市花溪区孟关汽贸城	GAC Toyota	None	26.407692	106.747795	广汽丰田贵阳亨丰通孟关店	0851-83966888	None	https://www.gac-toyota.com.cn/province/guizhou/guiyang/dealer/hftmg
贵阳市清镇汽车贸易城	GAC Toyota	None	26.56833982	106.51226971	广汽丰田贵阳瀚羿睿峰清镇店	0851-83806111	None	https://www.gac-toyota.com.cn/province/guizhou/guiyang/dealer/hyrfqzd
贵州省六盘水市钟山西路德坞白鹤高架桥(车管所旁)	GAC Toyota	None	26.608095	104.821899	广汽丰田六盘水通源钟山店	0858-6707330	None	https://www.gac-toyota.com.cn/province/guizhou/liupanshui/dealer/lpstszs
贵州省遵义市红花岗区高新技术产业园内	GAC Toyota	None	27.635274	106.887967	广汽丰田遵义贵和忠庄店	0851-23279666	None	https://www.gac-toyota.com.cn/province/guizhou/zunyi/dealer/zyghzz
遵义市汇川区董公寺国际商贸城二期广汽丰田4S店	GAC Toyota	None	27.783006	106.927676	广汽丰田遵义沃丰汇川店	0851-28761010	None	https://www.gac-toyota.com.cn/province/guizhou/zunyi/dealer/wfhcd
贵州省安顺市西秀区贵州省安顺市西秀区工业园区内	GAC Toyota	None	26.281273	106.009675	广汽丰田安顺恒信西秀店	0851-38828905	None	https://www.gac-toyota.com.cn/province/guizhou/anshun/dealer/ashxxx
贵州省铜仁市万山区谢桥新区铜大高速入口处	GAC Toyota	None	27.69081497	109.17148655	广汽丰田铜仁恒信万山店	0856-3526166	None	https://www.gac-toyota.com.cn/province/guizhou/tongren/dealer/hxws
贵州省兴义市坪东镇青龙路坪东小学旁	GAC Toyota	None	25.09610182	104.88302868	广汽丰田贵阳通源金阳店兴义分店	0859-3811777	None	https://www.gac-toyota.com.cn/province/guizhou/qianxinan/dealer/gytyjydxyf
贵州省凯里经济开发区320国道北侧、开元路西南侧	GAC Toyota	None	26.52455194	107.86287097	广汽丰田凯里通源经纬店	0855-8585300	None	https://www.gac-toyota.com.cn/province/guizhou/qiandongnan/dealer/tyjwd
贵州省毕节市七星关区碧阳大道中段佰润汽车公园	GAC Toyota	None	27.268379	105.395616	广汽丰田毕节佰润碧阳店	0857-8836888	None	https://www.gac-toyota.com.cn/province/guizhou/bijie/dealer/brby
贵州省都匀市纬八西路羊场坝茂盛汽车城7号楼	GAC Toyota	None	26.303112	107.512337	广汽丰田黔南通源都匀店	0854-8896888	None	https://www.gac-toyota.com.cn/province/guizhou/duyun/dealer/qntydy
宁夏银川市兴庆区丽景北街730号	GAC Toyota	None	38.491502	106.311666	广汽丰田银川上陵丽景店	0951-6724666	None	https://www.gac-toyota.com.cn/province/ningxiahuizuzizhi/yinchuan/dealer/ycsllj
宁夏银川市德胜工业园虹桥北路海峡建材城西门对面	GAC Toyota	None	38.553518	106.323721	广汽丰田银川万易丰德胜店	0951-7890566/7890588###0951-7890678	None	https://www.gac-toyota.com.cn/province/ningxiahuizuzizhi/yinchuan/dealer/ycwyfds
宁夏吴忠市利通区世纪大道北侧汽车工业园	GAC Toyota	None	38.00898	106.22731	广汽丰田吴忠国喜世纪店	0953—3919999	None	https://www.gac-toyota.com.cn/province/ningxiahuizuzizhi/wuzhong/dealer/gxsj
青海省西宁市海湖大道24号	GAC Toyota	None	36.691066	101.74726	广汽丰田西宁元通海湖店(青海广通汽车销售有限公司)	0971-8811188	None	https://www.gac-toyota.com.cn/province/qinghai/xining/dealer/xnythh
青海省西宁市经济技术开发区金丰路1号	GAC Toyota	None	36.567461	101.876697	广汽丰田西宁嘉泰晟城东店	0971-7177888	None	https://www.gac-toyota.com.cn/province/qinghai/xining/dealer/jtscd
陕西省宝鸡市高新十二路路东	GAC Toyota	None	34.348041	107.296057	广汽丰田宝鸡圣华高新路店	0917-3266200	None	https://www.gac-toyota.com.cn/province/shanxi/baoji/dealer/bjshgxl
陕西省渭南市经济技术开发区创业大道东申华汽车博展园	GAC Toyota	None	34.587025	109.471806	广汽丰田渭南朝霞高新店	0913-2668111	None	https://www.gac-toyota.com.cn/province/shanxi/weinan/dealer/wncxgx
西安市新城区幸福中路41号	GAC Toyota	None	34.26158033	109.02292298	广汽丰田西安逸铤幸福路店	029-83221033	None	https://www.gac-toyota.com.cn/province/shanxi/xian/dealer/xaytxfl
陕西省西安市未央区西三环与石化大道交汇处东南角	GAC Toyota	None	34.326925	108.855554	广汽丰田西安世堡西三环店	029-81629900	None	https://www.gac-toyota.com.cn/province/shanxi/xian/dealer/xasbxsh
西安市高新技术产业开发区科技四路199号	GAC Toyota	None	34.22609448	108.89021783	广汽丰田西安博弈高新店	029-88452288###029-88452288/88452266	None	https://www.gac-toyota.com.cn/province/shanxi/xian/dealer/xabygx
西安市二环北路东段1188号（未央立交东南角）	GAC Toyota	None	34.315768	108.958435	广汽丰田西安安骏北二环店	029-88112222	None	https://www.gac-toyota.com.cn/province/shanxi/xian/dealer/xaajbeh
陕西省西安市雁塔区科技西路66号	GAC Toyota	None	34.246001	108.815544	广汽丰田西安中升鱼化店	029-87962222	None	https://www.gac-toyota.com.cn/province/shanxi/xian/dealer/zsyh
延安市宝塔区李渠镇杨兴庄汽车城加油站对面	GAC Toyota	None	36.666952	109.588879	广汽丰田延安福九洲宝塔店	0911-2917111	None	https://www.gac-toyota.com.cn/province/shanxi/yanan/dealer/yafjzbt
榆林市经济开发区草海则电厂路	GAC Toyota	None	38.230766	109.737225	广汽丰田榆林白云草海则店	0912—3511888	None	https://www.gac-toyota.com.cn/province/shanxi/yulin/dealer/ylbychz
汉中市铺镇转盘向南1公里（西汉高速东入口引道中段）	GAC Toyota	None	33.078936	107.129875	广汽丰田汉中家宜汉台店	0916-8890888	None	https://www.gac-toyota.com.cn/province/shanxi/hanzhong/dealer/hzjyht
陕西省咸阳市秦都区西兰路北上召汽车产业园	GAC Toyota	None	34.376059	108.682887	广汽丰田咸阳通源秦都店	029-33128777	None	https://www.gac-toyota.com.cn/province/shanxi/xianyang/dealer/tyqd
陕西省安康市高新技术产业开发区创业西路东侧仓房楼汽车园内	GAC Toyota	None	32.726178	108.995736	广汽丰田安康凯瑞隆高新店	0915-3096555	None	https://www.gac-toyota.com.cn/province/shanxi/ankang/dealer/krlgx
四川省成都市高新区火车南站西路1919号	GAC Toyota	None	30.592399	104.03399	广汽丰田成都三和新元素店	028-85185511	None	https://www.gac-toyota.com.cn/province/sichuan/chengdou/dealer/cdshxys
成都市高新西区（羊西线）新航路2号	GAC Toyota	None	30.743873	103.969426	广汽丰田成都捷瑞羊西店	028-69368888	None	https://www.gac-toyota.com.cn/province/sichuan/chengdou/dealer/cdjryx
川陕路108国道城北延线佳飞建材城对面（成绵高速川陕干道出口1.5公里处）	GAC Toyota	None	30.873294	104.204831	广汽丰田成都安利捷北辰店	028-83675555	None	https://www.gac-toyota.com.cn/province/sichuan/chengdou/dealer/cdaljbc
成都市新都区三河街道五龙山路88号	GAC Toyota	None	30.785467	104.169005	广汽丰田成都中升蜀龙路店	028-67255555	None	https://www.gac-toyota.com.cn/province/sichuan/chengdou/dealer/cdzxxd/
成都市东三环路五段航天立交桥（原大观立交桥）东北角	GAC Toyota	None	30.622892	104.152774	广汽丰田成都锦泰东三环店	028-96575(总机)###028-84630033（销售热线）	None	https://www.gac-toyota.com.cn/province/sichuan/chengdou/dealer/cdjtdsh
成都市武侯区双星大道武青南路53号	GAC Toyota	None	30.630275	103.990579	广汽丰田成都明嘉武侯店	028-85374545	None	https://www.gac-toyota.com.cn/province/sichuan/chengdou/dealer/cdmjwh
四川省达州市南外镇杨柳汽车工业园区	GAC Toyota	None	31.175756	107.511861	广汽丰田达州启阳达通店	0818—2222088	None	https://www.gac-toyota.com.cn/province/sichuan/dazhou/dealer/qydt
四川省德阳市八角工业园区金沙江路（东汽新基地对面）	GAC Toyota	None	31.078433	104.376246	广汽丰田德阳亨宇八角店	0838-2315555	None	https://www.gac-toyota.com.cn/province/sichuan/deyang/dealer/dyhybj
四川省乐山市市中区苏稽镇乐峨路东段666号	GAC Toyota	None	29.594356	103.682118	广汽丰田乐山瑞天市中区店	0833—2568000	None	https://www.gac-toyota.com.cn/province/sichuan/leshan/dealer/lsrtszq
四川省泸州市江阳区江南轻工业集中发展区	GAC Toyota	None	28.838338	105.419771	广汽丰田泸州驰骋蓝安店	0830-2597111	None	https://www.gac-toyota.com.cn/province/sichuan/luzhou/dealer/lzccla
绵阳市高新区永兴工业开发区10号（普明桥头）	GAC Toyota	None	31.426441	104.77495	广汽丰田绵阳百翔高新店	0816-2886666	None	https://www.gac-toyota.com.cn/province/sichuan/mianyang/dealer/mybxgx
四川省绵阳市经开区机场东路168号	GAC Toyota	None	31.426518	104.774923	广汽丰田绵阳百翔经开分店	0816-2588899	None	https://www.gac-toyota.com.cn/province/sichuan/mianyang/dealer/bxjkf
四川省南充市高坪区航空港大道国际汽车城	GAC Toyota	None	30.774599	106.178094	广汽丰田南充通源高坪店	0817-3391999	None	https://www.gac-toyota.com.cn/province/sichuan/nanchong/dealer/nctygp
四川省攀枝花市东区高新技术产业园区（东区银江镇小沙坝）	GAC Toyota	None	26.594737	101.776082	广汽丰田攀枝花悦田银江店	0812-6866666	None	https://www.gac-toyota.com.cn/province/sichuan/panzhihua/dealer/pzhytyj
遂宁市船山区中国西部现代物流港玫瑰大道B南侧	GAC Toyota	None	30.452695	105.573296	广汽丰田遂宁正龙物流港店	0825-2397555	None	https://www.gac-toyota.com.cn/province/sichuan/suining/dealer/snzlwlg
四川省自贡市贡井区长土镇大坡村一组	GAC Toyota	None	29.333851	104.711691	广汽丰田自贡四达南环路店	0813－3408888	None	https://www.gac-toyota.com.cn/province/sichuan/zigong/dealer/zgsdnhl
四川省眉山市东坡区眉州大道西5段	GAC Toyota	None	30.08149	103.828467	广汽丰田眉山天牛华兴店	028-38166800	None	https://www.gac-toyota.com.cn/province/sichuan/meishan/dealer/msbxdp
四川省宜宾市翠屏区旧州路30号	GAC Toyota	None	28.798942	104.614383	广汽丰田宜宾久协江北店	0831-8209000	None	https://www.gac-toyota.com.cn/province/sichuan/yibin/dealer/jxjbd
四川省广元市昭化区工业发展集中区	GAC Toyota	None	32.378093	105.966711	广汽丰田广元伟航昭化店	0839-8730207	None	https://www.gac-toyota.com.cn/province/sichuan/guangyuan/dealer/gyhzh
四川省巴中市巴州区时新街道办事处长石街16号	GAC Toyota	None	31.857595	106.861009	广汽丰田巴中翰星经开区店	0827-6125888	None	https://www.gac-toyota.com.cn/province/sichuan/bazhong/dealer/hxjkq
广安市前锋区护安镇汽博一街4号	GAC Toyota	None	30.51087832	106.70824717	广汽丰田广安兴迪经开区店	0826-2600000	None	https://www.gac-toyota.com.cn/province/sichuan/guangan/dealer/xdjkq
四川省内江市市中区甜城大道500号	GAC Toyota	None	29.58961585	105.03583118	广汽丰田内江百翔甜城店	0832-2071888	None	https://www.gac-toyota.com.cn/province/sichuan/neijiang/dealer/bxtcd
资阳市雁江区大千路C段8号	GAC Toyota	None	30.112363	104.625998	广汽丰田资阳宜通万翔雁江店(在建店)		None	https://www.gac-toyota.com.cn/province/sichuan/ziyang/dealer/zysyjqdql
西藏自治区拉萨市拉贡路3号	GAC Toyota	None	29.64276681	91.01648308	广汽丰田拉萨祥和开发区店	0891-6151565	None	https://www.gac-toyota.com.cn/province/xicangzizhi/lasa/dealer/lsxhkfq
乌鲁木齐市南湖北路906号	GAC Toyota	None	43.832681	87.616694	广汽丰田乌鲁木齐瑞天南湖路店	0991-4886900	None	https://www.gac-toyota.com.cn/province/xinjiangweiwuerzizhi/wulumuqi/dealer/wlmqrtnhl
新疆乌鲁木齐市迎宾路481号	GAC Toyota	None	43.897515	87.527915	广汽丰田乌鲁木齐长信迎宾店	0991-3781088	None	https://www.gac-toyota.com.cn/province/xinjiangweiwuerzizhi/wulumuqi/dealer/wlmqcxyb
新疆昌吉市乌伊路西段	GAC Toyota	None	44.035639	87.251138	广汽丰田昌吉丰骏乌伊路店	0994-2229999	None	https://www.gac-toyota.com.cn/province/xinjiangweiwuerzizhi/changji/dealer/cjfjwyl
新疆喀什市疏附县五羊大道三号（广州新城）	GAC Toyota	None	39.429655	75.915886	广汽丰田喀什华汇疏附店	0998-3149883	None	https://www.gac-toyota.com.cn/province/xinjiangweiwuerzizhi/keshen/dealer/kshhfx
新疆伊宁市巴彦岱清伊高速路口沿218国道向西200米左转	GAC Toyota	None	43.97753185	81.22758783	广汽丰田伊犁晨驰巴彦岱店	0999-7757788	None	https://www.gac-toyota.com.cn/province/xinjiangweiwuerzizhi/yili/dealer/ylccbydd
新疆库尔勒市石化大道神州汽车城2期汽配城4号展厅	GAC Toyota	None	41.72884075	86.21890627	广汽丰田巴州丰凯车城店	0996-2057666	None	https://www.gac-toyota.com.cn/province/xinjiangweiwuerzizhi/bayin/dealer/bzfkccd
阿克苏大欣汽车城建业街700号	GAC Toyota	None	41.22882667	80.24938093	广汽丰田阿克苏博骏欣业店	0997-4537666	None	https://www.gac-toyota.com.cn/province/xinjiangweiwuerzizhi/akesu/dealer/d65N10
新疆和田地区和田市玫瑰大道52号	GAC Toyota	None	37.1493265	79.91261062	广汽丰田和田华弘玫瑰大道店	0903-6865111	None	https://www.gac-toyota.com.cn/province/xinjiangweiwuerzizhi/hetian/dealer/hhmgddd
新疆哈密市伊州区广东工业园区岭南路宝盈汽车城4号展厅	GAC Toyota	None	42.344467	93.529373	广汽丰田哈密赢驰岭南路店	0902-7183888	None	https://www.gac-toyota.com.cn/province/xinjiangweiwuerzizhi/hami/dealer/hmyclnl
云南省大理经济开发区巍山路与风盛路交界处	GAC Toyota	None	25.59993169	100.26741885	广汽丰田大理中升滇源路店	0872-2146888	None	https://www.gac-toyota.com.cn/province/yunnan/dali/dealer/dlzsdyl
云南省红河州蒙自市红河大道世家寨加油站旁	GAC Toyota	None	23.38067796	103.35852095	广汽丰田红河中升蒙自店	0873-3697777	None	https://www.gac-toyota.com.cn/province/yunnan/honghe/dealer/mzrdhhl
昆明市日新中路318号（省高院斜对面）	GAC Toyota	None	25.006746	102.690868	广汽丰田昆明中升滇池店	0871-64612888	None	https://www.gac-toyota.com.cn/province/yunnan/kunming/dealer/kmzsdc
云南省昆明市盘龙区白龙路500号	GAC Toyota	None	25.07025574	102.75765875	广汽丰田昆明联庆世博店	0871-65018780	None	https://www.gac-toyota.com.cn/province/yunnan/kunming/dealer/kmlqsb
昆明市盘龙区沣源路北部客运站	GAC Toyota	None	25.11537286	102.77080965	广汽丰田昆明旭成广福店	0871-63633999	None	https://www.gac-toyota.com.cn/province/yunnan/kunming/dealer/kmxcgf
云南省昆明经开区洛阳街道办事处新加坡产业园区Ⅱ-1-3-2地块	GAC Toyota	None	24.98967784	102.65867926	广汽丰田昆明通悦呈贡店	0871-68875777	None	https://www.gac-toyota.com.cn/province/yunnan/kunming/dealer/tycgd
云南省曲靖市南片区银屯路（曲靖民爆大楼旁）	GAC Toyota	None	25.4703602	103.80980095	广汽丰田曲靖联庆麒麟店	0874-3182266	None	https://www.gac-toyota.com.cn/province/yunnan/qujing/dealer/qjlqql
云南省曲靖市曲靖国家级经济开发区三江大道南侧三元路西侧（广汽丰田店）	GAC Toyota	None	25.51646	103.813275	广汽丰田曲靖博丰三江店(在建店)		None	https://www.gac-toyota.com.cn/province/yunnan/qujing/dealer/bfsjd
云南省西双版纳景洪市嘎栋工业园区南溪路5号	GAC Toyota	None	22.017919	100.756485	广汽丰田西双版纳诚丰嘎栋店	0691-2755055	None	https://www.gac-toyota.com.cn/province/yunnan/xishuangbanna/dealer/cfgd
云南省昭通市昭阳区工业园区太平街道办事处石渣河社区十组	GAC Toyota	None	27.39498	103.787442	广汽丰田昭通恒升昭阳店	0870-3188999	None	https://www.gac-toyota.com.cn/province/yunnan/zhaotong/dealer/zthssy
云南省玉溪市红塔区李棋镇金家边社区太极路中段	GAC Toyota	None	24.385721	102.549141	广汽丰田玉溪昊丰太极路店	0877-6878888	None	https://www.gac-toyota.com.cn/province/yunnan/yuxi/dealer/yxhftj
云南省普洱市思茅区北部区振兴路延长线与20号路交叉口处（普洱人家正对面）	GAC Toyota	None	22.829725	100.983465	广汽丰田普洱祥通思茅区店	0879-2277555	None	https://www.gac-toyota.com.cn/province/yunnan/puer/dealer/prxtsm
云南省文山市国际汽车城4s-11地块	GAC Toyota	None	23.326676	104.287807	广汽丰田文山长利城南店	0876-2660888	None	https://www.gac-toyota.com.cn/province/yunnan/wenshan/dealer/wsclcn
云南省楚雄市滇中大商汇汽车4S店集群区108号	GAC Toyota	None	25.068342	101.499672	广汽丰田楚雄长轩大商汇店	0878-6997888	None	https://www.gac-toyota.com.cn/province/yunnan/chuxiong/dealer/cxdsh
云南省保山市隆阳区永昌街道惠通路下村工贸园区英茂汽车城内	GAC Toyota	None	25.13961724	99.20248375	广汽丰田保山保丰惠通路店	0875-2855508	None	https://www.gac-toyota.com.cn/province/yunnan/baoshan/dealer/bfhtld
重庆市南岸经开区白鹤路61号（麦德龙对面）	GAC Toyota	None	29.521309	106.562106	广汽丰田重庆渝润南岸区店	023-62775555	None	https://www.gac-toyota.com.cn/province/chongqing/chongqing/dealer/zqyrnaq
重庆市渝北区金渝大道88号附4号	GAC Toyota	None	29.644825	106.576924	广汽丰田重庆长俊北区店	023-67469555	None	https://www.gac-toyota.com.cn/province/chongqing/chongqing/dealer/zqcjbq
重庆市九龙坡区科园四路188号（南方君临酒店对面）	GAC Toyota	None	29.5323	106.4979	广汽丰田重庆朔龙龙腾店	023-86972666	None	https://www.gac-toyota.com.cn/province/chongqing/chongqing/dealer/zqsllt
重庆市江北区盘溪路302号	GAC Toyota	None	29.596201	106.490145	广汽丰田重庆铭远通华威店	023-67721118	None	https://www.gac-toyota.com.cn/province/chongqing/chongqing/dealer/mythwd
重庆市大渡口区西城大道7号	GAC Toyota	None	29.458869	106.481518	广汽丰田重庆中升大渡口店	023-68938888	None	https://www.gac-toyota.com.cn/province/chongqing/chongqing/dealer/zsddk
重庆市万州区江南新区联合坝（机场路口）	GAC Toyota	None	30.777799	108.445705	广汽丰田重庆互邦万州店	023-58655588	None	https://www.gac-toyota.com.cn/province/chongqing/chongqing/dealer/zqhbwz
重庆市涪陵区桥南大道百事达汽车园广汽丰田4S店	GAC Toyota	None	29.72240871	107.36922892	广汽丰田重庆百事达涪陵店	023-87802266	None	https://www.gac-toyota.com.cn/province/chongqing/chongqing/dealer/bsdbld
安徽省安庆市国际汽车城三期内新车管所检测线对面再洲路	GAC Toyota	None	30.575655	117.068234	广汽丰田安庆安晟机场路店	0556-5301111	None	https://www.gac-toyota.com.cn/province/anhui/anqing/dealer/aqasjcl
安徽省蚌埠市迎宾大道中段蚌埠国际汽车城	GAC Toyota	None	32.86952	117.319867	广汽丰田蚌埠润翔广美店	0552-3715656	None	https://www.gac-toyota.com.cn/province/anhui/bangbu/dealer/bbrxgm
安徽省阜阳经济技术开发区汽贸物流园1018号	GAC Toyota	None	32.849792	115.871197	广汽丰田阜阳众合开发区店	0558-2226881	None	https://www.gac-toyota.com.cn/province/anhui/fuyang/dealer/fyzhkfq
合肥市包河区繁华大道与天津路交口	GAC Toyota	None	31.801492	117.355195	广汽丰田合肥伟世行包河店	0551-63355151	None	https://www.gac-toyota.com.cn/province/anhui/hefei/dealer/hfwsxbh
安徽省合肥市瑶海区包公大道与护城路交叉口向南50米	GAC Toyota	None	31.895254	117.420091	广汽丰田合肥特优达瑶海店	0551-67670567	None	https://www.gac-toyota.com.cn/province/anhui/hefei/dealer/hftydyh
安徽省淮北市相山区汽车城骏驰路国土局旁	GAC Toyota	None	33.9303	116.802793	广汽丰田淮北融申相山路店	0561-3869088	None	https://www.gac-toyota.com.cn/province/anhui/huaibei/dealer/hbrsxsl
安徽省六安市金安区三十铺镇312国道与凤凰路交叉口	GAC Toyota	None	31.780595	116.680406	广汽丰田六安环丰金安店	0564-3838998	None	https://www.gac-toyota.com.cn/province/anhui/liuan/dealer/lahfja
马鞍山市慈湖河路4715号	GAC Toyota	None	31.74070099	118.53437932	广汽丰田马鞍山宝融慈湖河店	0555-3557666	None	https://www.gac-toyota.com.cn/province/anhui/maanshan/dealer/masbrchh
安徽省芜湖市梦溪路18-7号	GAC Toyota	None	31.386365	118.500038	广汽丰田芜湖伟澈万春店	0553-2112111	None	https://www.gac-toyota.com.cn/province/anhui/wuhu/dealer/wcwcld
安徽省芜湖市东四大道与三环路交叉口处	GAC Toyota	None	31.38508	118.445435	广汽丰田芜湖亚凯三环路店	0553-2306000	None	https://www.gac-toyota.com.cn/province/anhui/wuhu/dealer/whykshl
安徽省宣城市薰化路698号	GAC Toyota	None	30.90885	118.72538	广汽丰田宣城瑞通职院店	0563-3395777	None	https://www.gac-toyota.com.cn/province/anhui/xuancheng/dealer/xcrtzy
淮南经济技术开发区朝阳东路北侧建设路东侧	GAC Toyota	None	32.6659443	117.07045858	广汽丰田淮南嘉丰经开区店	0554-2211788	None	https://www.gac-toyota.com.cn/province/anhui/huainan/dealer/jfjkqd
宿州经济开发区西昌南路东侧，外环二路南	GAC Toyota	None	33.599756	116.976993	广汽丰田宿州广和经开区店	0557-2283226	None	https://www.gac-toyota.com.cn/province/anhui/suzhou/dealer/szghjkq
安徽省黄山市经济开发区梅林大道50号枫树路西侧汽车贸易中心	GAC Toyota	None	29.77256	118.27342	广汽丰田黄山煜丰开发区店	0559-2518806	None	https://www.gac-toyota.com.cn/province/anhui/huangshanshi/dealer/hsyfd
安徽省铜陵市郊区铜都大道南段桥南4S店集群	GAC Toyota	None	30.87525581	117.77620901	广汽丰田铜陵兆和铜都店	0562-2661999	None	https://www.gac-toyota.com.cn/province/anhui/tongling/dealer/tlhtd
安徽省亳州市谯城区工业园区杜仲路1号	GAC Toyota	None	33.836855	115.769022	广汽丰田亳州远景杜仲路店	0558-5812888	None	https://www.gac-toyota.com.cn/province/anhui/bozhou/dealer/yjdzl
滁州市丰乐大道2769号2号店	GAC Toyota	None	32.24914467	118.31548248	广汽丰田滁州鑫丰丰乐大道店	0550-3179888	None	https://www.gac-toyota.com.cn/province/anhui/chuzhou/dealer/xfflddd
河南省安阳市北关区人民大道与光明路交叉口向北走200米路东	GAC Toyota	None	36.123534	114.420177	广汽丰田安阳万众光明店	0372-3688111	None	https://www.gac-toyota.com.cn/province/henan/anyang/dealer/ayydccqcxsfwyxg
焦作市高新区迎宾路与龙新路交叉口宏达名车城院内	GAC Toyota	None	35.203859	113.25977	广汽丰田焦作富达迎宾路店	0391--3669988	None	https://www.gac-toyota.com.cn/province/henan/jiaozuo/dealer/jzfdybl
洛阳市洛龙区牡丹大道与杜预街交汇处西50米路北	GAC Toyota	None	34.602298	112.415514	广汽丰田洛阳锦鸿牡丹大道店	0379-62312888	None	https://www.gac-toyota.com.cn/province/henan/luoyang/dealer/jhmddd
洛阳市瀍河回族区启明南路名车苑	GAC Toyota	None	34.685655	112.51185	广汽丰田洛阳九州启明店	0379-60691000	None	https://www.gac-toyota.com.cn/province/henan/luoyang/dealer/lyjzqm
南阳市张衡街路与独山大道交叉口南300米路西	GAC Toyota	None	33.02583	112.572125	广汽丰田南阳丰雷宛城店	0377-63507777	None	https://www.gac-toyota.com.cn/province/henan/nanyang/dealer/nyflwcd
南阳市仲景北路(车管所南200米)	GAC Toyota	None	33.055986	112.569744	广汽丰田南阳南光独山店	0377-63290999	None	https://www.gac-toyota.com.cn/province/henan/nanyang/dealer/nyngds
平顶山市建设路东段（许平南高速出口西500米路北）	GAC Toyota	None	33.743228	113.502127	广汽丰田平顶山骏鹰建设路店	0375-8671111	None	https://www.gac-toyota.com.cn/province/henan/pingdingshan/dealer/pdsjyjsl
河南省平顶山市市辖区建设路与青桐街交叉口向西300米路南741号	GAC Toyota	None	33.73906308	113.38706047	广汽丰田平顶山瑞盈高新店	0375-2374444	None	https://www.gac-toyota.com.cn/province/henan/pingdingshan/dealer/rygxd
河南省濮阳市胜利路与106国道交叉口北200米路东瑞璞汽车小镇内7-2展厅	GAC Toyota	None	35.968616	115.169972	广汽丰田濮阳宇丰东环路店	0393-8076666	None	https://www.gac-toyota.com.cn/province/henan/puyang/dealer/pyyfdhl
商丘市示范区北海路与星林路交叉口南20米路东	GAC Toyota	None	34.400765	115.703193	广汽丰田商丘锦昌北海路店	0370-2618999	None	https://www.gac-toyota.com.cn/province/henan/shangqiu/dealer/jcbhl
河南省商丘市民主路与金桥路交叉口向北800米路西	GAC Toyota	None	34.458419	115.600537	广汽丰田商丘威佳梁园店	0370--5072222	None	https://www.gac-toyota.com.cn/province/henan/shangqiu/dealer/sqwjly
河南省新乡市新飞大道与南环路交叉口向南2公里路西	GAC Toyota	None	35.245608	113.906746	广汽丰田新乡万顺新飞路店	0373-5011111	None	https://www.gac-toyota.com.cn/province/henan/xinxiang/dealer/wsxfld
河南省新乡市新中大道与晋新高速交汇处向北260米路西	GAC Toyota	None	35.370797	113.936443	广汽丰田新乡威佳北环店	0373-5290000	None	https://www.gac-toyota.com.cn/province/henan/xinxiang/dealer/wjbh
信阳市平桥区工业园迎宾大道平桥创业园	GAC Toyota	None	32.12916078	114.16717774	广汽丰田信阳中鑫迎宾路店	0376-3713888	None	https://www.gac-toyota.com.cn/province/henan/xinyang/dealer/xyzxybl
河南省许昌市建安大道与魏武路交叉口向东300米	GAC Toyota	None	34.04191235	113.88002972	广汽丰田许昌骏驰莲城店	0374-2922000	None	https://www.gac-toyota.com.cn/province/henan/xuchang/dealer/xcjclc
河南省许昌市建安区梨园转盘东北角50米	GAC Toyota	None	33.988052	113.869813	广汽丰田许昌宝泓南环路店	0374-8588000	None	https://www.gac-toyota.com.cn/province/henan/xuchang/dealer/bhnhld
河南省郑州市航海中路179号（富达汽车广场）广汽丰田富达航海路店	GAC Toyota	None	34.726402	113.640085	广汽丰田郑州富达航海路店	0371-68822288	None	https://www.gac-toyota.com.cn/province/henan/zhengzhou/dealer/zzfdhhl
河南省郑州市高新区瑞达路与梧桐街向西300米路南	GAC Toyota	None	34.799801	113.573407	广汽丰田郑州鑫宝高新区店	0371-55530000	None	https://www.gac-toyota.com.cn/province/henan/zhengzhou/dealer/zzxbgxq
河南省郑州市中原区中原西路与杭州路交叉口河南大中原国际汽车城园区内	GAC Toyota	None	34.761222	113.50741	广汽丰田郑州长通大中原店	0371-61901111	None	https://www.gac-toyota.com.cn/province/henan/zhengzhou/dealer/zzctdzy
河南省郑州市商都路与博学路交叉口南200米路西	GAC Toyota	None	34.746423	113.800097	广汽丰田郑州骏驰金水路店	0371-60233333	None	https://www.gac-toyota.com.cn/province/henan/zhengzhou/dealer/zzjcjsl
河南省郑州市惠济区花园路236号河南汽车贸易中心北门	GAC Toyota	None	34.872578	113.679309	广汽丰田郑州富达花园路店	0371-55006088	None	https://www.gac-toyota.com.cn/province/henan/zhengzhou/dealer/zzfdhyl
郑州市航海东路与第八大街交叉口南100米路东	GAC Toyota	None	34.724532	113.771767	广汽丰田郑州成悦经开区店	0371-63333333	None	https://www.gac-toyota.com.cn/province/henan/zhengzhou/dealer/zzcyjkq
郑州市经济技术开发区九龙办事处新安路与龙飞北街交叉口东北角	GAC Toyota	None	34.68796086	113.85995142	广汽丰田郑州中升南三环店	0371-88929111	None	https://www.gac-toyota.com.cn/province/henan/zhengzhou/dealer/zsnshd
河南省郑州市新郑市郑韩路与阁老路交叉口东北角	GAC Toyota	None	34.427477	113.736194	广汽丰田新郑富达郑韩路分店	0371-62628199	None	https://www.gac-toyota.com.cn/province/henan/zhengzhou/dealer/zzfdhhldxzf
河南省周口市太清路庞大汽车城院内	GAC Toyota	None	33.65550763	114.68532771	广汽丰田周口正通太清店	0394-8543888	None	https://www.gac-toyota.com.cn/province/henan/zhoukou/dealer/zkzttq
周口市中州大道与太昊路交叉口向西500米路南众恒汽车城院内南300米	GAC Toyota	None	34.68796086	113.85995142	广汽丰田周口神通太昊路店	0394-8108666转1	None	https://www.gac-toyota.com.cn/province/henan/zhoukou/dealer/stthld
河南省开封市宋城路与集英街交叉口向西400米路北	GAC Toyota	None	34.79302	114.294113	广汽丰田开封骏誉宋城路店	0371-23290000	None	https://www.gac-toyota.com.cn/province/henan/kaifeng/dealer/kfjyscl
河南省驻马店市开源路与驿城大道交叉口金龙科技园内	GAC Toyota	None	33.012272	114.068752	广汽丰田驻马店锦鸿驿城店	0396-3823999	None	https://www.gac-toyota.com.cn/province/henan/zhumadian/dealer/zkzttq
三门峡交口乡瑞通汽车城东北角第一家	GAC Toyota	None	34.7370403	111.26209766	广汽丰田三门峡威佳湖滨店	0398-2600333	None	https://www.gac-toyota.com.cn/province/henan/sanmenxia/dealer/d41M20
河南省漯河市源汇区漯舞路口西100米路北	GAC Toyota	None	33.556293	114.000131	广汽丰田漯河富宏漯舞路店	0395-5695555	None	https://www.gac-toyota.com.cn/province/henan/luohe/dealer/lhfhlwl
河南省鹤壁市淇滨区渤海路与兴鹤大街交叉口东南角	GAC Toyota	None	35.77815	114.2986	广汽丰田鹤壁锦鸿淇滨店	0392-3322111	None	https://www.gac-toyota.com.cn/province/henan/hebishi/dealer/hbjhqb
湖北省黄冈市黄州区南湖农场榨舟山（南湖收费站附近）	GAC Toyota	None	30.450944	114.986177	广汽丰田黄冈汇佳黄州店	0713-8343666	None	https://www.gac-toyota.com.cn/province/hubei/huanggang/dealer/hghjhz
湖北黄石市黄金山工业新区大棋路汽车市场	GAC Toyota	None	30.14168904	115.03345534	广汽丰田黄石利丰黄金山店	0714—6399888	None	https://www.gac-toyota.com.cn/province/hubei/huangshi/dealer/hslfhjs
湖北省荆门市月亮湖路78号	GAC Toyota	None	31.05075579	112.24380823	广汽丰田荆门金帝东宝店	0724-2238888	None	https://www.gac-toyota.com.cn/province/hubei/jingmen/dealer/jmjddb
湖北省荆州市荆州区荆沙大道两湖交易市场西侧	GAC Toyota	None	30.361427	112.239563	广汽丰田荆州华星荆沙店	0716-8409666	None	https://www.gac-toyota.com.cn/province/hubei/jingzhou/dealer/jzhxjs
湖北省十堰市浙江路万通工业园内2号门（正对红绿灯十字路口）	GAC Toyota	None	32.653908	110.83826	广汽丰田十堰贤良浙江路店	0719-8289888	None	https://www.gac-toyota.com.cn/province/hubei/shiyan/dealer/syxlzjl
武汉市硚口区长丰大道168号	GAC Toyota	None	30.613883	114.218229	广汽丰田武汉汇佳汉口店	027-83869990	None	https://www.gac-toyota.com.cn/province/hubei/wuhan/dealer/whhjhk
湖北省武汉市东湖高新开发区高新四路12号（万科魅力之城对面）	GAC Toyota	None	30.456283	114.448251	广汽丰田武汉汇美光谷店	027-81777177	None	https://www.gac-toyota.com.cn/province/hubei/wuhan/dealer/whhmgg
湖北省武汉市江岸区兴业路136号黄浦科技园	GAC Toyota	None	30.634324	114.283042	广汽丰田武汉赛美佳黄浦店	027-85881666	None	https://www.gac-toyota.com.cn/province/hubei/wuhan/dealer/smjpl
武汉市东西湖区长青街办事处革新大道165号（8）	GAC Toyota	None	30.619586	114.108775	广汽丰田武汉中升东西湖店	027-83090999	None	https://www.gac-toyota.com.cn/province/hubei/wuhan/dealer/whzsdxhd
武汉市洪山区白沙洲大道7号	GAC Toyota	None	30.432084	114.266895	广汽丰田武汉景田民生武昌店	027-51867777	None	https://www.gac-toyota.com.cn/province/hubei/wuhan/dealer/whjtmswc
武汉市汉阳区隆祥街20号	GAC Toyota	None	30.555601	114.204846	广汽丰田武汉华星汉阳店	027-84688911	None	https://www.gac-toyota.com.cn/province/hubei/wuhan/dealer/hxhyd
湖北省咸宁市咸安区通江大道32号	GAC Toyota	None	29.881928	114.249087	广汽丰田咸宁贤良咸潘路店	0715-8818018	None	https://www.gac-toyota.com.cn/province/hubei/xianning/dealer/xlxpl
襄阳市高新区深圳工业园襄阳大道3号二号、三号车间	GAC Toyota	None	32.127192	112.255816	广汽丰田襄阳中优达高新店	0710-3766888	None	https://www.gac-toyota.com.cn/province/hubei/xiangyang/dealer/zydgx
襄阳市襄州区钻石大道51号	GAC Toyota	None	32.098908	112.184276	广汽丰田襄阳东凯钻石路店	0710-2599999	None	https://www.gac-toyota.com.cn/province/hubei/xiangyang/dealer/dkzs
孝感市南大经济开发区仙女湖路118号	GAC Toyota	None	30.90143048	113.98196639	广汽丰田孝感爱康仙女湖店	0712-2515678	None	https://www.gac-toyota.com.cn/province/hubei/xiaogan/dealer/xgakxnh
湖北省宜昌市发展大道91号	GAC Toyota	None	30.744377	111.354013	广汽丰田宜昌金沙东山店	0717-6300088	None	https://www.gac-toyota.com.cn/province/hubei/yichang/dealer/jsds
中国（湖北）自贸区宜昌片区东艳路46号	GAC Toyota	None	30.675923	111.370056	广汽丰田宜昌昕远伍家岗店	0717-6971789	None	https://www.gac-toyota.com.cn/province/hubei/yichang/dealer/xywjg
湖北省恩施州经济开发区西区恩施国际汽车城一期3-1号楼	GAC Toyota	None	30.288904	109.460829	广汽丰田恩施汇凯汽车城店	0718-8201212	None	https://www.gac-toyota.com.cn/province/hubei/enshi/dealer/eshkqcc
湖北省随州市高新技术区鹿鹤大道北侧	GAC Toyota	None	31.711225	113.439673	广汽丰田随州中志达曾都店	0722-3333356	None	https://www.gac-toyota.com.cn/province/hubei/suizhou/dealer/zzdzd
湖北省仙桃市仙洪公路21号华中汽车交易大市场7-1-23号	GAC Toyota	None	30.32820204	113.42481853	广汽丰田仙桃汇佳天翔车城分店	0728-3229990	None	https://www.gac-toyota.com.cn/province/hubei/xiantao/dealer/xthjtxccf
湖北省潜江市潜阳西路39号潜江天驰汽车市场	GAC Toyota	None	30.420694	112.872204	广汽丰田武汉汇佳汉口店潜江分店	0728-6273333	None	https://www.gac-toyota.com.cn/province/hubei/qianjiang/dealer/whhjhkdqjf
湖北省鄂州市花园路五里墩汽车市场6号楼一层	GAC Toyota	None	30.3883376	114.87628367	广汽丰田鄂州汇佳花园路分店	0711-3899990	None	https://www.gac-toyota.com.cn/province/hubei/ezhou/dealer/ezhjhylf
湖南省常德市常德大道东段（柳叶汽车站对面）	GAC Toyota	None	29.067134	111.723128	广汽丰田常德天晟武陵店	0736-7823000	None	https://www.gac-toyota.com.cn/province/hunan/changde/dealer/cdtswl
湖南省常德市武陵区启明街道皇木关社区常德大道（沅水二桥旁）	GAC Toyota	None	29.00224418	111.7203328	广汽丰田常德长齐德山店	0736-7706618	None	https://www.gac-toyota.com.cn/province/hunan/changde/dealer/cqdsd
湖南省郴州市北湖区国庆南路延伸段梨树山加油站旁	GAC Toyota	None	25.766535	113.049552	广汽丰田郴州晨峰北湖店	0735-2129333	None	https://www.gac-toyota.com.cn/province/hunan/chenzhou/dealer/czcfbh
湖南省衡阳市石鼓区石鼓路116号中亿汽车贸易城28号楼101室	GAC Toyota	None	26.946963	112.615907	广汽丰田衡阳长湘石鼓店	0734-2888999	None	https://www.gac-toyota.com.cn/province/hunan/hengyang/dealer/cxsg
衡阳市蒸湘区外环西路杨柳汽车城	GAC Toyota	None	26.881487	112.582222	广汽丰田衡阳晨峰杨柳店	0734-8669998	None	https://www.gac-toyota.com.cn/province/hunan/hengyang/dealer/hycfyl
湖南省娄底市娄星区潭邵高速连接线万宝工业园中南汽车城内	GAC Toyota	None	27.665125	112.025263	广汽丰田娄底晟丰新星店	0738-8117999	None	https://www.gac-toyota.com.cn/province/hunan/loudi/dealer/ldsfxx
湖南省邵阳市双清区宝庆工业园邵阳大道东联接线F10地块	GAC Toyota	None	27.259307	111.56905	广汽丰田邵阳华运丰永通店	0739-5240888	None	https://www.gac-toyota.com.cn/province/hunan/shaoyang/dealer/syhyfyt
湖南省湘潭市岳塘区河东大道170号	GAC Toyota	None	27.854494	112.961711	广汽丰田湘潭九隆河东店	0731-52611111	None	https://www.gac-toyota.com.cn/province/hunan/xiangtan/dealer/xtjlhd
湖南省湘潭市湘乡经济开发区湘乡大道10号	GAC Toyota	None	27.76965755	112.51216027	广汽丰田湘潭九隆河东店湘乡分店	0731-56578855	None	https://www.gac-toyota.com.cn/province/hunan/xiangtan/dealer/xtjlhddxxf
湖南省益阳市高新区益宁城际干道汽车物流园（火车东站旁）	GAC Toyota	None	28.51199212	112.40109512	广汽丰田益阳东鑫银城店	0737-6600777	None	https://www.gac-toyota.com.cn/province/hunan/yiyang/dealer/yydxyc
湖南省永州市零陵区潇湘汽车城广汽丰田4S店	GAC Toyota	None	26.29959917	111.63987775	广汽丰田永州和信芝山店	0746-6316777	None	https://www.gac-toyota.com.cn/province/hunan/yongzhou/dealer/yzhxzs
湖南省永州市冷水滩区长丰大道鸿意工业园北门（广汽丰田4S店）	GAC Toyota	None	26.405199	111.606715	广汽丰田永州盛和开发区店	0746-8661188	None	https://www.gac-toyota.com.cn/province/hunan/yongzhou/dealer/yzrhkfqd
湖南省岳阳市巴陵东路459号	GAC Toyota	None	29.375571	113.178014	广汽丰田岳阳华运丰巴陵店	0730-8836988	None	https://www.gac-toyota.com.cn/province/hunan/yueyang/dealer/yyhyfbl
湖南省汨罗市城郊乡双塘村七组	GAC Toyota	None	28.79518648	113.10884961	广汽丰田岳阳华运丰君行天下分店	0730-5568888	None	https://www.gac-toyota.com.cn/province/hunan/yueyang/dealer/yyhyfqcxsfwyxgsmlfg
湖南省岳阳市岳阳楼区岳阳大道京港澳高速公路连接线6.5公里处北侧	GAC Toyota	None	29.339836	113.239746	广汽丰田岳阳长仁城东店	0730-8089988	None	https://www.gac-toyota.com.cn/province/hunan/yueyang/dealer/crcdd
长沙市四方坪三一大道346号	GAC Toyota	None	28.237643	113.015699	广汽丰田长沙华运丰四方店	0731-82888666	None	https://www.gac-toyota.com.cn/province/hunan/changsha/dealer/cshyfsf
长沙市中南汽车世界三一路与时中路交汇处（长沙银行对面）	GAC Toyota	None	28.244055	113.071394	广汽丰田长沙长威中南店	0731-86992299	None	https://www.gac-toyota.com.cn/province/hunan/changsha/dealer/cscwzn
长沙市天心区芙蓉南路一段999号（新省政府东门对面）	GAC Toyota	None	28.122944	112.994579	广汽丰田长沙坤宝天心店	0731-85895555	None	https://www.gac-toyota.com.cn/province/hunan/changsha/dealer/cskbtx
湖南省长沙市岳麓区岳麓大道389号（湘麓山庄对面）	GAC Toyota	None	28.231318	112.933684	广汽丰田长沙达田河西店	0731-89603333	None	https://www.gac-toyota.com.cn/province/hunan/changsha/dealer/csdthx
长沙市望城区大泽湖街道金星北路4段599号	GAC Toyota	None	28.31916232	112.8972868	广汽丰田长沙中升金星大道店	0731-88550123	None	https://www.gac-toyota.com.cn/province/hunan/changsha/dealer/d43A50
湖南省长沙市岳麓区学士街道含浦大道与云栖路交叉口东北角广汽丰田4S店	GAC Toyota	None	28.14105271	112.91876238	广汽丰田长沙中升含浦店	0731-85120882	None	https://www.gac-toyota.com.cn/province/hunan/changsha/dealer/zshpd
湖南省株洲市天元区金凯路1号	GAC Toyota	None	27.84273	113.099821	广汽丰田株洲九城天元店	0731-22268888	None	https://www.gac-toyota.com.cn/province/hunan/zhuzhou/dealer/zzjcty
湖南省株洲市攸县谭桥街道流和社区对面组（湘东汽贸城）	GAC Toyota	None	27.027684	113.3599	广汽丰田株洲长运攸县店	0731-24255028	None	https://www.gac-toyota.com.cn/province/hunan/zhuzhou/dealer/cyyxd
株洲市芦淞区董家塅高科园航空路85号	GAC Toyota	None	27.776574	113.155709	广汽丰田株洲长泽航空路店	0731-22965888	None	https://www.gac-toyota.com.cn/province/hunan/zhuzhou/dealer/czhkl
湖南省怀化市鹤城区南环路怀化国际汽车城	GAC Toyota	None	27.523717	110.011213	广汽丰田怀化长顺会展店	0745-2228899	None	https://www.gac-toyota.com.cn/province/hunan/huaihua/dealer/hhcshz
湖南省浏阳市关口工业小区天鹰包装厂后	GAC Toyota	None	28.184544	113.648665	广汽丰田浏阳华运丰关口店	0731-83837888	None	https://www.gac-toyota.com.cn/province/hunan/liuyang/dealer/d43A60
湖南省张家界市经济开发区C区101、201	GAC Toyota	None	29.139356	110.564091	广汽丰田张家界九丰汽车城店	0744-8780333	None	https://www.gac-toyota.com.cn/province/hunan/zhangjiajie/dealer/jfqccd
湖南省湘西州吉首市峒河办事处大田湾肖家坪永通汽车城内广汽丰田4S店	GAC Toyota	None	28.30260293	109.76264842	广汽丰田吉首华运丰永通店	0743-8279888	None	https://www.gac-toyota.com.cn/province/hunan/jishou/dealer/hyfytd
山东省滨州市经济开发区渤海24路431号	GAC Toyota	None	37.35904364	117.9297939	广汽丰田滨州永利开发区店	0543-3806666	None	https://www.gac-toyota.com.cn/province/shandong/binzhou/dealer/bzylkfq
滨州市滨城区渤海五路东方红路口往东160米路北	GAC Toyota	None	37.44172511	118.01385945	广汽丰田滨州臻善滨城区店	0543-3521333	None	https://www.gac-toyota.com.cn/province/shandong/binzhou/dealer/zsbcqd
山东省德州市经济开发区新河东路广川大道交岔口	GAC Toyota	None	37.425861	116.352019	广汽丰田德州朗泰新河路店	0534-2375555	None	https://www.gac-toyota.com.cn/province/shandong/dezhou/dealer/dzltxhl
山东省德州市经济技术开发区晶华大道3109号德州悦骋广汽丰田4S店（徳百汽贸城院内）	GAC Toyota	None	37.46287349	116.38486315	广汽丰田德州悦骋晶华路店	0534-2398666	None	https://www.gac-toyota.com.cn/province/shandong/dezhou/dealer/ypjhld
东营市西城西五路西城车管所南邻	GAC Toyota	None	37.425528	118.467196	广汽丰田东营东辉胜园店	0546-8597888	None	https://www.gac-toyota.com.cn/province/shandong/dongying/dealer/dyhmsy
山东省东营市东营区东八路与辽河路交汇处向南200米路西	GAC Toyota	None	37.441298	118.765377	广汽丰田东营南悦开发区店(在建店)	0546-7069999	None	https://www.gac-toyota.com.cn/province/shandong/dongying/dealer/nykfqd
山东省菏泽市开发区黄河东路1198号	GAC Toyota	None	35.2675	115.554207	广汽丰田菏泽朗巍开发区店	0530-5709555	None	https://www.gac-toyota.com.cn/province/shandong/heze/dealer/hzlwkfq
山东省菏泽市高新区长城路与重庆路交叉口西100米路北3677号	GAC Toyota	None	35.28648549	115.43419801	广汽丰田菏泽福瑞长城西路店	0530-7801111	None	https://www.gac-toyota.com.cn/province/shandong/heze/dealer/frccxld
济南市经十西路368号	GAC Toyota	None	36.655253	116.893482	广汽丰田济南大友经十路店	0531-87516666	None	https://www.gac-toyota.com.cn/province/shandong/jinan/dealer/jndyjsl
济南市天桥区无影山中路291号	GAC Toyota	None	36.688328	116.953385	广汽丰田济南中升匡山店	0531-55764888	None	https://www.gac-toyota.com.cn/province/shandong/jinan/dealer/jnzsksd
济南市历下区刘智远路39号	GAC Toyota	None	36.694723	117.157041	广汽丰田济南中升世纪大道店	0531-55765333	None	https://www.gac-toyota.com.cn/province/shandong/jinan/dealer/zssjdd
山东省济南市历城区工业北路与黄电大街交叉口东南角	GAC Toyota	None	36.72203019	117.10165403	广汽丰田济南瑞通工业北路店	0531-88686999	None	https://www.gac-toyota.com.cn/province/shandong/jinan/dealer/jnrtgybl
山东省章丘市西环路以西、福安路以北	GAC Toyota	None	36.71937071	117.51889676	广汽丰田章丘大友福安路分店	0531-83317708	None	https://www.gac-toyota.com.cn/province/shandong/jinan/dealer/zqdyfalf
济宁市任城区安居街道美恒济宁国际汽车博览城沿街1号楼	GAC Toyota	None	35.37457416	116.53691362	广汽丰田济宁利华晟美恒店	0537--5091777	None	https://www.gac-toyota.com.cn/province/shandong/jining/dealer/lhsmhd
山东省邹城市国宏大道6369号	GAC Toyota	None	35.444787	116.977701	广汽丰田邹城乾丰行北外环店	0537-5220111	None	https://www.gac-toyota.com.cn/province/shandong/jining/dealer/zcqfhbwh
济宁市高新区327国道88号润华汽车广场	GAC Toyota	None	35.444551	116.680208	广汽丰田济宁丰华高新区店	0537-2932888	None	https://www.gac-toyota.com.cn/province/shandong/jining/dealer/jnfhgxq
山东省邹城市国宏大道6369号	GAC Toyota	None	35.44654665	116.97992116	广汽丰田邹城丰华北外环分店	0537-5220111	None	https://www.gac-toyota.com.cn/province/shandong/jining/dealer/jnfhqcxsfwyxgszcfg
山东省莱芜市莱城工业区莱明路以西汽车城内	GAC Toyota	None	36.289202	117.65913	广汽丰田莱芜宝泰莱明路店	0634-6488888	None	https://www.gac-toyota.com.cn/province/shandong/laiwu/dealer/lwbtlml
山东省聊城市开发区辽河路南东外环西	GAC Toyota	None	36.50256193	115.94391872	广汽丰田聊城润之丰东环路店	0635-8278899	None	https://www.gac-toyota.com.cn/province/shandong/liaocheng/dealer/sdlcrzf
山东省聊城市东昌府区站前街聊城顺骋汽车贸易有限公司	GAC Toyota	None	36.462056	115.952509	广汽丰田聊城顺骋西站店(在建店)		None	https://www.gac-toyota.com.cn/province/shandong/liaocheng/dealer/scxzd
山东省临沂市罗庄区临西五路与金九路交汇处西1500米（翔宇国际汽车城）	GAC Toyota	None	35.022736	118.300044	广汽丰田临沂君来沂河路店	0539-7068222	None	https://www.gac-toyota.com.cn/province/shandong/linyi/dealer/lyjlyhl
临沂市兰山区双岭路高架西段远通汽车大世界院内（市区6分钟直达）	GAC Toyota	None	35.14041	118.266713	广汽丰田临沂仁华双岭路店	0539-7678526	None	https://www.gac-toyota.com.cn/province/shandong/linyi/dealer/d37Q30
山东省临沂市河东北京东路与温泉路交互处（临沂车管所北邻路西）西南方向168米	GAC Toyota	None	35.10123562	118.43552275	广汽丰田临沂丰和温泉路店	0539-7050888	None	https://www.gac-toyota.com.cn/province/shandong/linyi/dealer/fhwqld
山东省临沂市兰山区通达路与海关路交汇向西100米路南	GAC Toyota	None	35.04326426	118.33477906	广汽丰田临沂阳光海关路店	0539-8172555	None	https://www.gac-toyota.com.cn/province/shandong/linyi/dealer/lyyghgl
山东省青岛市市北区蚌埠路5号	GAC Toyota	None	36.125851	120.394865	广汽丰田青岛瑞合市北店	0532-80998888	None	https://www.gac-toyota.com.cn/province/shandong/qingdao/dealer/qdrhls
青岛市城阳区靖城路1066号	GAC Toyota	None	36.339047	120.435901	广汽丰田青岛伟丰靖城路店	0532-66987999	None	https://www.gac-toyota.com.cn/province/shandong/qingdao/dealer/d37B50
山东省青岛市经济技术开发区江山中路118-2号	GAC Toyota	None	36.017552	120.178805	广汽丰田青岛瑞铂开发区店	0532-83103333	None	https://www.gac-toyota.com.cn/province/shandong/qingdao/dealer/qdrbkfq
青岛市城阳区黑龙江中路296号（国际工艺品城北300米路西）	GAC Toyota	None	36.16013555	120.43430462	广汽丰田青岛利华晟城阳店(在建店)		None	https://www.gac-toyota.com.cn/province/shandong/qingdao/dealer/qdlhsycd
山东省日照经济开发区奎山汽车城204国道东侧	GAC Toyota	None	35.399896	119.441468	广汽丰田日照凌瑞奎山店	0633-8539999	None	https://www.gac-toyota.com.cn/province/shandong/rizhao/dealer/rzlrks
山东省日照市五莲县洪凝街道郭家崖村	GAC Toyota	None	35.72493276	119.20998569	广汽丰田五莲凌瑞滨河路分店	0633-5316688	None	https://www.gac-toyota.com.cn/province/shandong/rizhao/dealer/wllrbhlf
山东省日照市莒县206国道与岳石路交汇处北侧	GAC Toyota	None	35.630142	118.826431	广汽丰田莒县凌瑞城阳分店	0633-6233666	None	https://www.gac-toyota.com.cn/province/shandong/rizhao/dealer/lxlrcy
山东省泰安市岱岳区青春创业开发区泰东路泰山国际汽车城内	GAC Toyota	None	36.161774	117.040727	广汽丰田泰安瑞亿泰东路店	0538-5097777	None	https://www.gac-toyota.com.cn/province/shandong/taian/dealer/tarytdl
威海市经区青岛南路242号	GAC Toyota	None	37.395911	122.168224	广汽丰田威海润洋青岛路店	0631-5972666	None	https://www.gac-toyota.com.cn/province/shandong/weihai/dealer/whryqdl
山东省威海临港经济技术开发区丽水路-1-10号	GAC Toyota	None	37.3339	122.147944	广汽丰田威海汇佳临港店	0631-3648111	None	https://www.gac-toyota.com.cn/province/shandong/weihai/dealer/hjlg
潍坊市潍城区西二环与309国道交叉口南100米路西	GAC Toyota	None	36.729961	119.043347	广汽丰田潍坊瑞嘉潍城店	0536-8386333	None	https://www.gac-toyota.com.cn/province/shandong/weifang/dealer/wfrjwc
山东省潍坊市奎文区凤凰大街66号	GAC Toyota	None	36.65501824	119.1421794	广汽丰田潍坊瑞丽奎文店	0536-8828000	None	https://www.gac-toyota.com.cn/province/shandong/weifang/dealer/wfjhfhl
山东省潍坊市寒亭区开元街道海龙路3499号1号楼101	GAC Toyota	None	36.763223	119.191208	广汽丰田潍坊乾丰行寒亭店	0536-7260000	None	https://www.gac-toyota.com.cn/province/shandong/weifang/dealer/qfhht
山东省潍坊市寿光市洛城圣城街与寒五路交汇处	GAC Toyota	None	36.8458191	118.79012381	广汽丰田潍坊瑞嘉潍城店寿光分店	0536-5679900	None	https://www.gac-toyota.com.cn/province/shandong/weifang/dealer/wfrjqcxsfwyxgssgfg
烟台市机场路246号	GAC Toyota	None	37.481977	121.368619	广汽丰田烟台荣大机场路店	0535-6737111	None	https://www.gac-toyota.com.cn/province/shandong/yantai/dealer/ytrdjcl
山东省烟台市开发区北京南路8号（汽车西站斜对面）	GAC Toyota	None	37.546613	121.228888	广汽丰田烟台荣和开发区店	0535-6993111	None	https://www.gac-toyota.com.cn/province/shandong/yantai/dealer/ytrhkfq
山东省烟台市龙口市龙口高新技术产业园区南智家村北	GAC Toyota	None	37.616006	120.512074	广汽丰田龙口汇佳南山店	0535-3121177	None	https://www.gac-toyota.com.cn/province/shandong/yantai/dealer/lkhjns
枣庄市薛城区张范镇光明路复兴路交汇处	GAC Toyota	None	34.82984	117.440815	广汽丰田枣庄永正光明路店	0632-7659333	None	https://www.gac-toyota.com.cn/province/shandong/zaozhuang/dealer/zzyzgml
淄博市昌国路长途客运站西2公里路南（周隆路8888号）	GAC Toyota	None	36.7913	117.978028	广汽丰田淄博博美新区店	0533-8777777	None	https://www.gac-toyota.com.cn/province/shandong/zibo/dealer/zbbmxq
山东省淄博市张店区山泉路84号	GAC Toyota	None	36.776448	118.046694	广汽丰田淄博金嘉骋山泉路店	0533-7171888	None	https://www.gac-toyota.com.cn/province/shandong/zibo/dealer/jjpsql
山东省寿光市洛城圣城东街与永乐路交汇处站	GAC Toyota	None	36.857955	118.850456	广汽丰田寿光瑞博圣城街店	0536-5679900	None	https://www.gac-toyota.com.cn/province/shandong/shouguang/dealer/rbscj
江苏省常州市钟楼区龙江中路53号	GAC Toyota	None	31.795814	119.913616	广汽丰田常州广联龙江路店	0519-83908888	None	https://www.gac-toyota.com.cn/province/jiangsu/changzhou/dealer/czglljl
江苏省溧阳市溧城镇城北大道18号	GAC Toyota	None	31.468885	119.498568	广汽丰田溧阳广恒昆仑店	0519-87233888	None	https://www.gac-toyota.com.cn/province/jiangsu/changzhou/dealer/lyghkl
常州市武进区汽车城D区9号(星火南路)	GAC Toyota	None	31.699293	119.973044	广汽丰田常州威宇武进店	0519-86200888	None	https://www.gac-toyota.com.cn/province/jiangsu/changzhou/dealer/czwywj
江苏省连云港市瀛洲南路68号	GAC Toyota	None	34.569301	119.22758	广汽丰田连云港吉田瀛洲路店	0518-85389888	None	https://www.gac-toyota.com.cn/province/jiangsu/lianyungang/dealer/lygjtyzl
南京市栖霞区仙尧路27号(312国道旁)	GAC Toyota	None	32.11135	118.896528	广汽丰田南京大政仙尧路店	025-85667788	None	https://www.gac-toyota.com.cn/province/jiangsu/nanjing/dealer/njdzxyl
南京市江宁区东麒路	GAC Toyota	None	31.984337	118.883485	广汽丰田南京协众东麒路店	025-52707808	None	https://www.gac-toyota.com.cn/province/jiangsu/nanjing/dealer/njxzdql
江苏省南京市江北新区宁六路349号-2号	GAC Toyota	None	32.232321	118.741803	广汽丰田南京长益大厂店	025-57052888	None	https://www.gac-toyota.com.cn/province/jiangsu/nanjing/dealer/njcydc
南京市浦口区江浦街道扬子路同心家园小区大门右侧	GAC Toyota	None	32.03684	118.63411	广汽丰田南京大政浦口正明德分店	025-56678899	None	https://www.gac-toyota.com.cn/province/jiangsu/nanjing/dealer/njdzpkzmdf
江苏省南京市江北新区浦口沿山大道9-2号	GAC Toyota	None	32.1449268	118.70578294	广汽丰田南京瑞越沿山大道店(在建店)		None	https://www.gac-toyota.com.cn/province/jiangsu/nanjing/dealer/njryysddd
南京市玄武区东方城48号	GAC Toyota	None	32.093482	118.835763	广汽丰田南京和展玄武大道店	025-83180999	None	https://www.gac-toyota.com.cn/province/jiangsu/nanjing/dealer/njhzxwddd
南通市城港路81号	GAC Toyota	None	32.037781	120.821318	广汽丰田南通长江城港路店	0513-85300999	None	https://www.gac-toyota.com.cn/province/jiangsu/nantong/dealer/ntcjcgl
江苏省南通市通州区先锋镇青年东路618号	GAC Toyota	None	32.00542797	120.97219828	广汽丰田南通新城先锋店	0513-81002000	None	https://www.gac-toyota.com.cn/province/jiangsu/nantong/dealer/ntxcgys
江苏省南通市工农北路599号（火车站东2公里）	GAC Toyota	None	32.071246	120.884739	广汽丰田南通文峰工农路店	0513-85099888	None	https://www.gac-toyota.com.cn/province/jiangsu/nantong/dealer/ntwfgnl
江苏省启东市城北工业园区兴龙路666号	GAC Toyota	None	31.835749	121.68658232	广汽丰田启东启粮兴龙路店	0513-83225777	None	https://www.gac-toyota.com.cn/province/jiangsu/nantong/dealer/ntqdqlxll
江苏省如皋市如城街道惠政西路36号	GAC Toyota	None	32.356772	120.548437	广汽丰田如皋益泽惠政路店	0513-88508088	None	https://www.gac-toyota.com.cn/province/jiangsu/nantong/dealer/rgyzhzl
江苏省海门市海门镇人民西路1501号	GAC Toyota	None	31.89502634	121.13672198	广汽丰田南通长江海门分店	0513-82112599	None	https://www.gac-toyota.com.cn/province/jiangsu/nantong/dealer/ntcjhmf
张家港市东二环路（暨阳东路口）	GAC Toyota	None	31.86591468	120.58544447	广汽丰田张家港海昌东二环店	0512-58299999	None	https://www.gac-toyota.com.cn/province/jiangsu/suzhou/dealer/zjghcdeh
江苏省苏州市姑苏西环路99号	GAC Toyota	None	31.284334	120.595854	广汽丰田苏州开泰西环路店	0512-67868999	None	https://www.gac-toyota.com.cn/province/jiangsu/suzhou/dealer/ktxhl
苏州市工业园区苏虹中路233号	GAC Toyota	None	31.34192395	120.72439154	广汽丰田苏州九和园区店	0512-88189966	None	https://www.gac-toyota.com.cn/province/jiangsu/suzhou/dealer/szjhyq
昆山市开发区东城大道118号（与昆嘉路交叉口）	GAC Toyota	None	31.367353	121.064804	广汽丰田昆山前进东城大道店	0512-57037555	None	https://www.gac-toyota.com.cn/province/jiangsu/suzhou/dealer/ksqjdcdd
江苏省苏州市吴中区凯马广场中山东路185号	GAC Toyota	None	31.262986	120.554054	广汽丰田苏州常华苏福路店	0512-66877111	None	https://www.gac-toyota.com.cn/province/jiangsu/suzhou/dealer/szchsfl
江苏省太仓市城厢镇北京路与毛太路交界口	GAC Toyota	None	31.482408	121.098452	广汽丰田太仓森誉北京路店	0512-53776888	None	https://www.gac-toyota.com.cn/province/jiangsu/suzhou/dealer/tcsybjl
苏州市吴江江陵西路1377号	GAC Toyota	None	31.183839	120.651943	广汽丰田苏州苏新吴江店	0512-68188399	None	https://www.gac-toyota.com.cn/province/jiangsu/suzhou/dealer/d32EA0
常熟市富春江东路55号	GAC Toyota	None	31.63452118	120.8081362	广汽丰田常熟文邦黄山路店	0512-52506666	None	https://www.gac-toyota.com.cn/province/jiangsu/suzhou/dealer/cswbhsl
江苏省昆山市长江北路388号	GAC Toyota	None	31.42731885	120.98410958	广汽丰田昆山昊众长江北路店	0512-57819998	None	https://www.gac-toyota.com.cn/province/jiangsu/suzhou/dealer/hzcjbld
苏州市相城区太阳路2933号	GAC Toyota	None	31.416003	120.6282	广汽丰田苏州元骏相城店	0512-87778999	None	https://www.gac-toyota.com.cn/province/jiangsu/suzhou/dealer/szyjxc
泰州市泰高路299号（汽车南站向南3公里）	GAC Toyota	None	32.427385	119.912017	广汽丰田泰州宝铁龙泰高店	0523-86996666	None	https://www.gac-toyota.com.cn/province/jiangsu/taizhou/dealer/tzbtltg
江苏省泰州市泰兴市镇海北路与龙河路交汇处东	GAC Toyota	None	32.19914471	120.0551373	广汽丰田泰兴宝文龙河路店	0523-85719666	None	https://www.gac-toyota.com.cn/province/jiangsu/taizhou/dealer/txbwlhl
江苏省无锡市新区行创四路16-16号	GAC Toyota	None	31.540758	120.394407	广汽丰田无锡广鑫旺庄店	0510-85065555	None	https://www.gac-toyota.com.cn/province/jiangsu/wuxi/dealer/wxgxwz
无锡市北环路868号	GAC Toyota	None	31.63629	120.320064	广汽丰田无锡常隆惠山店	0510-80105555	None	https://www.gac-toyota.com.cn/province/jiangsu/wuxi/dealer/wxclhs
江阴市东外环路15号	GAC Toyota	None	31.923922	120.31824	广汽丰田江阴颖达锦隆店	0510-86418888	None	https://www.gac-toyota.com.cn/province/jiangsu/wuxi/dealer/jyydjl
江苏省无锡市锡山区先锋中路23-9号	GAC Toyota	None	31.59006161	120.43070331	广汽丰田无锡尚瑞先锋店	0510-88086888	None	https://www.gac-toyota.com.cn/province/jiangsu/wuxi/dealer/srxfd
宜兴市融达汽车城西大门加油站南侧200米	GAC Toyota	None	31.387616	119.791437	广汽丰田宜兴新苏南轸村店	0510-81761000	None	https://www.gac-toyota.com.cn/province/jiangsu/wuxi/dealer/yxxsnzc
宿迁市宿城区双庄镇双庄街南迅驰路东侧	GAC Toyota	None	33.937069	118.244093	广汽丰田宿迁浩途汽车城店	0527-88980888	None	https://www.gac-toyota.com.cn/province/jiangsu/suqian/dealer/sqthqcc
徐州市铜山新区北京路南首连霍高速路口徐州南出口北200米路东	GAC Toyota	None	34.149304	117.188202	广汽丰田徐州浩邦铜山店	0516-83222888	None	https://www.gac-toyota.com.cn/province/jiangsu/xuzhou/dealer/xzhbts
江苏省徐州市云龙区维维大道56号-5号楼	GAC Toyota	None	34.2145278	117.24575776	广汽丰田徐州尊田迎宾大道店	0516-83200088	None	https://www.gac-toyota.com.cn/province/jiangsu/xuzhou/dealer/ztybddd
江苏省徐州市邳州市运河镇建设北路新中医院北门对面	GAC Toyota	None	34.307644	118.005465	广汽丰田邳州浩邦建设路分店	0516-86518555	None	https://www.gac-toyota.com.cn/province/jiangsu/xuzhou/dealer/pzhb
江苏省徐州市睢宁县经济开发区104国道11号金港国际建材家居购物广场3幢1203号	GAC Toyota	None	33.906006	117.919935	广汽丰田睢宁浩邦金港分店	0516-88153888	None	https://www.gac-toyota.com.cn/province/jiangsu/xuzhou/dealer/hnhbjg
江苏省盐城市盐都新区开创路2-10号	GAC Toyota	None	33.3342	120.139235	广汽丰田盐城通和盐都店	0515-88851000	None	https://www.gac-toyota.com.cn/province/jiangsu/yancheng/dealer/ycthyd
江苏省盐城市亭湖区新兴镇同心村一组	GAC Toyota	None	33.46257331	120.0871527	广汽丰田盐城友田城北店	0515-89022666	None	https://www.gac-toyota.com.cn/province/jiangsu/yancheng/dealer/ytcbd
扬州市扬子江北路荷叶东路158号	GAC Toyota	None	32.453272	119.394683	广汽丰田扬州瑞丰扬子江店	0514--82992999	None	https://www.gac-toyota.com.cn/province/jiangsu/yangzhou/dealer/yzrfyzj
扬州市江都区长江东路国际汽车城内	GAC Toyota	None	32.438928	119.613133	广汽丰田扬州大政江都店	0514-86337788	None	https://www.gac-toyota.com.cn/province/jiangsu/yangzhou/dealer/yzdzjd
江苏省高邮市城南经济新区中心大道南侧、新29路西侧	GAC Toyota	None	32.748737	119.491435	广汽丰田高邮瑞丰珠光路分店	0514-85080200	None	https://www.gac-toyota.com.cn/province/jiangsu/yangzhou/dealer/gyrfzgl
镇江市智慧大道788号(四季经典东大门斜对面）	GAC Toyota	None	32.187488	119.51979	广汽丰田镇江长达丁卯店	0511-88879999	None	https://www.gac-toyota.com.cn/province/jiangsu/zhenjiang/dealer/zjcddm
江苏省丹阳市丹金路西侧	GAC Toyota	None	31.954487	119.595463	广汽丰田丹阳长达丹金路店	0511-86957333	None	https://www.gac-toyota.com.cn/province/jiangsu/zhenjiang/dealer/dycddyld
江苏省扬中市扬中大道普济段	GAC Toyota	None	32.224185	119.849341	广汽丰田扬中长达普济分店	0511-88489669	None	https://www.gac-toyota.com.cn/province/jiangsu/zhenjiang/dealer/yzcdpjf
江苏省淮安市清河新区旺旺路18-4号	GAC Toyota	None	33.616037	119.114322	广汽丰田淮安雨田广州路店	0517-89701788	None	https://www.gac-toyota.com.cn/province/jiangsu/huaiyin/dealer/haytgzl
上海市闵行区莲花南路2058号	GAC Toyota	None	31.081762	121.431593	广汽丰田上海和展闵行店	021-34305128	None	https://www.gac-toyota.com.cn/province/shanghai/shanghai/dealer/shhzmx
上海市普陀区真南路3847号	GAC Toyota	None	31.299269	121.342948	广汽丰田上海绅瑞真南店	021-66275155	None	https://www.gac-toyota.com.cn/province/shanghai/shanghai/dealer/shsrzn
上海市徐汇区龙吴路900号	GAC Toyota	None	31.158364	121.45722	广汽丰田上海开隆徐汇店	021-54368000	None	https://www.gac-toyota.com.cn/province/shanghai/shanghai/dealer/shklxh
上海市青浦区诸光路66号	GAC Toyota	None	31.166367	121.325833	广汽丰田上海晨隆诸光路店	021-39811291	None	https://www.gac-toyota.com.cn/province/shanghai/shanghai/dealer/shclzgl
上海市徐汇区中山南二路555号7幢	GAC Toyota	None	31.1889	121.4611	广汽丰田上海交运滨江店	021-64189333	None	https://www.gac-toyota.com.cn/province/shanghai/shanghai/dealer/shjybj
上海市青浦区盈港东路6655号	GAC Toyota	None	31.16731437	121.18218533	广汽丰田上海骏昇青浦店	021-32231111	None	https://www.gac-toyota.com.cn/province/shanghai/shanghai/dealer/jsqpd
上海市普陀区祁连山南路388号	GAC Toyota	None	31.237733	121.372455	广汽丰田上海美兰沪西店	021-52697308	None	https://www.gac-toyota.com.cn/province/shanghai/shanghai/dealer/shmlhx
上海市浦东新区榕桥路618号	GAC Toyota	None	31.272516	121.635722	广汽丰田上海长宇浦东店	021-50320528	None	https://www.gac-toyota.com.cn/province/shanghai/shanghai/dealer/shcypd
上海市宝山区宝安公路828号	GAC Toyota	None	31.36950313	121.41814747	广汽丰田上海润信宝山店	021-56780802	None	https://www.gac-toyota.com.cn/province/shanghai/shanghai/dealer/rxbsd
上海市浦东新区锦绣路2888号	GAC Toyota	None	31.162188	121.567121	广汽丰田上海永达长荣店	021-58796789	None	https://www.gac-toyota.com.cn/province/shanghai/shanghai/dealer/shydcr
上海市松江区茸平路19号7幢	GAC Toyota	None	31.03371719	121.25548469	广汽丰田上海悦合松江店(在建店)		None	https://www.gac-toyota.com.cn/province/shanghai/shanghai/dealer/yhsjd
上海市浦东新区园中路65号（近沪南公路)	GAC Toyota	None	31.0441046	121.73211282	广汽丰田上海京丰行沪南路店(在建店)		None	https://www.gac-toyota.com.cn/province/shanghai/shanghai/dealer/shjfhhnld
杭州市拱墅区汽车城南面广丰路9号	GAC Toyota	None	30.328211	120.126236	广汽丰田杭州元通城北店	0571-28028888	None	https://www.gac-toyota.com.cn/province/zhejiang/hangzhou/dealer/hzytcb
浙江省杭州市江干区笕桥镇横塘村丁兰路99号	GAC Toyota	None	30.33214048	120.22618163	广汽丰田杭州东昌江干店	0571-88111100	None	https://www.gac-toyota.com.cn/province/zhejiang/hangzhou/dealer/hzdcjg
浙江省杭州市余杭区临平星发街16号	GAC Toyota	None	30.41758	120.270671	广汽丰田杭州贵丰临平店	0571-89276888	None	https://www.gac-toyota.com.cn/province/zhejiang/hangzhou/dealer/hzgflp
杭州市下城区绍兴路359号	GAC Toyota	None	30.306895	120.171619	广汽丰田杭州全通绍兴路店	0571-28997788	None	https://www.gac-toyota.com.cn/province/zhejiang/hangzhou/dealer/hzqtsxl
浙江省杭州市萧山区宁围镇宁牧村通北路151号	GAC Toyota	None	30.23383	120.2989	广汽丰田杭州千骅萧山店	0571-22893300/22893311	None	https://www.gac-toyota.com.cn/province/zhejiang/hangzhou/dealer/hzqhxs
浙江省杭州市富阳区银湖街道新桥新路1号	GAC Toyota	None	30.093271	119.946449	广汽丰田杭州广成富阳店	0571-61736001	None	https://www.gac-toyota.com.cn/province/zhejiang/hangzhou/dealer/fygcgq
浙江杭州市萧山区蜀山街道吉利路8号	GAC Toyota	None	30.115474	120.263314	广汽丰田杭州骏源湘湖店	0571-83780000	None	https://www.gac-toyota.com.cn/province/zhejiang/hangzhou/dealer/jyjh
浙江省杭州市临安市玲珑汽车城6号馆	GAC Toyota	None	30.212251	119.693037	广汽丰田临安元通玲珑分店	0571-61063280	None	https://www.gac-toyota.com.cn/province/zhejiang/hangzhou/dealer/hzytcb
湖州市杭长桥北路1988号	GAC Toyota	None	30.888232	120.069589	广汽丰田湖州绿地九九桥店	0572-2228866	None	https://www.gac-toyota.com.cn/province/zhejiang/huzhou/dealer/hzldjjq
浙江省湖州市吴兴区蜀山路199号3幢	GAC Toyota	None	30.850194	120.162773	广汽丰田湖州国戎蜀山路店	0572-2226888	None	https://www.gac-toyota.com.cn/province/zhejiang/huzhou/dealer/grssl
嘉兴市中环南路汽车商贸园二期品牌区A座	GAC Toyota	None	30.73671439	120.81745843	广汽丰田嘉兴友佳商贸园店	0573-82670710/82670711	None	https://www.gac-toyota.com.cn/province/zhejiang/jiaxing/dealer/jxyjsmy
浙江省嘉兴市南湖区昌盛南路汽车精品文化街（广汽丰田嘉兴骏合城南店）	GAC Toyota	None	30.73903306	120.72221987	广汽丰田嘉兴骏合城南店	0573-82721111	None	https://www.gac-toyota.com.cn/province/zhejiang/jiaxing/dealer/jhcnd
浙江省海宁市文苑路483号	GAC Toyota	None	30.547874	120.68765	广汽丰田海宁康乾文苑路店	0573-87656688	None	https://www.gac-toyota.com.cn/province/zhejiang/jiaxing/dealer/hnkqwyl
浙江省嘉兴桐乡市梧桐街道中华东路汽车商贸城四区3号	GAC Toyota	None	30.623641	120.593795	广汽丰田桐乡东昌振东店	0573-88923333	None	https://www.gac-toyota.com.cn/province/zhejiang/jiaxing/dealer/txdczd
浙江省义乌市青口圆盘（往廿三里方向）	GAC Toyota	None	29.31602	120.142496	广汽丰田义乌广泰青口店	0579-85669999	None	https://www.gac-toyota.com.cn/province/zhejiang/jinhua/dealer/ywgbqk
浙江省金华市义乌市机场路631号	GAC Toyota	None	29.337779	120.04476	广汽丰田义乌义丰北苑店	0579-85038888	None	https://www.gac-toyota.com.cn/province/zhejiang/jinhua/dealer/ywyfby
永康市城西新区花城东路99号	GAC Toyota	None	28.90379879	120.01057751	广汽丰田永康安邦西塔路店	0579-87265555	None	https://www.gac-toyota.com.cn/province/zhejiang/jinhua/dealer/ykabxtl
金华市金东区仙桥汽车城中心广场北侧	GAC Toyota	None	29.149396	119.696271	广汽丰田金华元通金东店	0579-82098888	None	https://www.gac-toyota.com.cn/province/zhejiang/jinhua/dealer/jhytjd
浙江省东阳市白云街道望江北路40号	GAC Toyota	None	29.281502	120.230242	广汽丰田东阳广昇汉宁店	0579-86376666	None	https://www.gac-toyota.com.cn/province/zhejiang/jinhua/dealer/dygshn
浙江省丽水市莲都区岩泉汽车城K地块	GAC Toyota	None	28.4790074	119.96369951	广汽丰田丽水广荣莲都店	0578-2223777	None	https://www.gac-toyota.com.cn/province/zhejiang/lishui/dealer/lsgrld
宁波市鄞州区中兴南路116号	GAC Toyota	None	29.852017	121.575208	广汽丰田宁波金丰中兴店	0574-87057388	None	https://www.gac-toyota.com.cn/province/zhejiang/ningbo/dealer/nbjfzx
宁波市镇海庄市中官西路1号(329国道常洪隧道往北500米)	GAC Toyota	None	29.919177	121.61167	广汽丰田宁波中升世纪店	0574-86688668	None	https://www.gac-toyota.com.cn/province/zhejiang/ningbo/dealer/nbzssj
慈溪市余慈高速连接线横河镇龙泉段	GAC Toyota	None	30.121014	121.170247	广汽丰田慈溪金港横河店	0574-23631111/23631110	None	https://www.gac-toyota.com.cn/province/zhejiang/ningbo/dealer/cxjghh
象山县滨海大道12号	GAC Toyota	None	29.421455	121.89812	广汽丰田象山宁兴丹城店	0574-89500500	None	https://www.gac-toyota.com.cn/province/zhejiang/ningbo/dealer/xsnxdc
浙江省宁波市余姚市阳明街道西环北路288号	GAC Toyota	None	30.06408	121.144475	广汽丰田宁波中基四明店	0574-62512345	None	https://www.gac-toyota.com.cn/province/zhejiang/ningbo/dealer/nbzjsm
宁波市海曙区鄞县大道西段1178号	GAC Toyota	None	29.83307022	121.50813393	广汽丰田宁波悦丰海曙店	0574-81858016	None	https://www.gac-toyota.com.cn/province/zhejiang/ningbo/dealer/yfhsd
浙江省宁海县梅林街道平安西路6号	GAC Toyota	None	29.367568	121.475945	广汽丰田宁海中升平安店	0574-83525555	None	https://www.gac-toyota.com.cn/province/zhejiang/ningbo/dealer/nhzspa
浙江省奉化市江口街道东环路888号	GAC Toyota	None	29.70542648	121.45442642	广汽丰田奉化金丰东环路分店	0574-88682930	None	https://www.gac-toyota.com.cn/province/zhejiang/ningbo/dealer/nbjfqcxsfwyxgsfhfg
浙江省衢州市柯城区浙西大道109号11区	GAC Toyota	None	28.937591	118.899834	广汽丰田衢州广成五环店	0570-8877000	None	https://www.gac-toyota.com.cn/province/zhejiang/quzhou/dealer/qzgcwh
绍兴袍江新区汤公路22号（斗门镇政府对面）	GAC Toyota	None	30.092802	120.60877	广汽丰田绍兴大昌行袍江店	0575-88171818	None	https://www.gac-toyota.com.cn/province/zhejiang/shaoxing/dealer/sxhfpj
柯桥区金柯桥大道3568号	GAC Toyota	None	30.14879	120.527267	广汽丰田绍兴冠松金柯桥店	0575-81103188	None	https://www.gac-toyota.com.cn/province/zhejiang/shaoxing/dealer/sxgsjkq
浙江省绍兴市诸暨市陶朱街道车城一路8号	GAC Toyota	None	29.7460254	120.19860934	广汽丰田诸暨浩顺浣东店	0575-87277008	None	https://www.gac-toyota.com.cn/province/zhejiang/shaoxing/dealer/zjhshd
浙江省绍兴市上虞区小越镇新宅村(329国道小越岭下)	GAC Toyota	None	30.06335695	120.91930929	广汽丰田上虞宝利德越湖店	0575-82710088	None	https://www.gac-toyota.com.cn/province/zhejiang/shaoxing/dealer/sybldyh
浙江省台州市椒江区开发大道与白云山南路交界处	GAC Toyota	None	28.643869	121.427093	广汽丰田台州骏丰椒江店	0576-88950000	None	https://www.gac-toyota.com.cn/province/zhejiang/taizhou/dealer/tzjfjj
台州市路桥区迎宾大道南侧(交警大队对面)	GAC Toyota	None	28.560949	121.401395	广汽丰田台州骏隆路桥店	0576-82966666	None	https://www.gac-toyota.com.cn/province/zhejiang/taizhou/dealer/tzjllq
浙江省台州市温岭市城东街道锦屏大道455号	GAC Toyota	None	28.416022	121.39085	广汽丰田温岭锦峰店	0576-86583888	None	https://www.gac-toyota.com.cn/province/zhejiang/taizhou/dealer/wljfjl
台州市黄岩区二环西路延伸段路边村	GAC Toyota	None	28.6349	121.254943	广汽丰田台州凯程黄岩店	0576-84262666	None	https://www.gac-toyota.com.cn/province/zhejiang/taizhou/dealer/tzkchy
浙江省临海市江南大道与汇丰南路交叉口	GAC Toyota	None	28.818304	121.153556	广汽丰田台州祥龙江南店	0576-89368999	None	https://www.gac-toyota.com.cn/province/zhejiang/taizhou/dealer/tzxljn
浙江省温州市永嘉县瓯北镇东瓯工业区统邦工业园	GAC Toyota	None	28.060204	120.614261	广汽丰田温州统邦瓯北店	0577-66996666	None	https://www.gac-toyota.com.cn/province/zhejiang/wenzhou/dealer/wztbob
温州市龙湾区温州大道45号	GAC Toyota	None	27.974992	120.756267	广汽丰田温州浙通机场路店	0577-86578888	None	https://www.gac-toyota.com.cn/province/zhejiang/wenzhou/dealer/wzztjcl
瑞安市塘下镇中心路（104国道1930公里处）	GAC Toyota	None	27.82937138	120.6826412	广汽丰田瑞安新盛塘下店	0577-66005555	None	https://www.gac-toyota.com.cn/province/zhejiang/wenzhou/dealer/raxstx
浙江省温州市瓯海区梧田街道蛟凤路温州汽车城G3号	GAC Toyota	None	27.968775	120.674215	广汽丰田温州德丰汽车城店	0577-56678888	None	https://www.gac-toyota.com.cn/province/zhejiang/wenzhou/dealer/wzhfqcc
浙江省温州市龙湾区滨海大道与明珠路交叉口	GAC Toyota	None	27.88248	120.821011	广汽丰田温州悦盛滨海店	0577-56562288	None	https://www.gac-toyota.com.cn/province/zhejiang/wenzhou/dealer/ysbhd
温州市苍南县灵溪镇通福路3488号(苍南高速路口右侧)	GAC Toyota	None	27.541376	120.44142	广汽丰田温州天信灵溪店	0577-59925026	None	https://www.gac-toyota.com.cn/province/zhejiang/wenzhou/dealer/wztxlx
乐清市城南街道宁康西路308号	GAC Toyota	None	28.109374	120.969262	广汽丰田广通乐成店	0577-27878888	None	https://www.gac-toyota.com.cn/province/zhejiang/wenzhou/dealer/lqgtlc
浙江省舟山市定海区双桥镇石礁社区外山头88号（舟山汽车城）	GAC Toyota	None	30.02931982	122.03474742	广汽丰田舟山龙华定海店	0580-8668999	None	https://www.gac-toyota.com.cn/province/zhejiang/zhoushan/dealer/zslhdh
